{
"type": "FeatureCollection",
"name": "counties",
"crs": { "type": "name", "properties": { "name": "urn:ogc:def:crs:OGC:1.3:CRS84" } },
"features": [
{ "type": "Feature", "properties": { "COUNTY": "Adair" }, "geometry": { "type": "Polygon", "coordinates": [ [ [ -94.8078, 35.6385 ], [ -94.4727, 35.6386 ], [ -94.5229, 35.9361 ], [ -94.5628, 36.1619 ], [ -94.7974, 36.1617 ], [ -94.7974, 35.9009 ], [ -94.8075, 35.9009 ], [ -94.8078, 35.6385 ] ] ] } },
{ "type": "Feature", "properties": { "COUNTY": "Alfalfa" }, "geometry": { "type": "Polygon", "coordinates": [ [ [ -98.5447, 36.999 ], [ -98.5402, 36.9422 ], [ -98.5405, 36.5942 ], [ -98.5334, 36.5942 ], [ -98.5336, 36.4632 ], [ -98.1044, 36.4631 ], [ -98.1043, 36.5936 ], [ -98.1093, 36.5936 ], [ -98.1105, 36.7676 ], [ -98.1096, 36.942 ], [ -98.112, 36.9981 ], [ -98.3541, 36.998 ], [ -98.5447, 36.999 ] ] ] } },
{ "type": "Feature", "properties": { "COUNTY": "Atoka" }, "geometry": { "type": "Polygon", "coordinates": [ [ [ -96.4075, 34.1573 ], [ -95.9916, 34.1568 ], [ -95.7794, 34.1567 ], [ -95.7791, 34.5066 ], [ -95.6718, 34.5068 ], [ -95.6718, 34.5937 ], [ -95.882, 34.5935 ], [ -95.8822, 34.6805 ], [ -96.092, 34.6806 ], [ -96.092, 34.5062 ], [ -96.1454, 34.5059 ], [ -96.1454, 34.4183 ], [ -96.4071, 34.4184 ], [ -96.4075, 34.1573 ] ] ] } },
{ "type": "Feature", "properties": { "COUNTY": "Beaver" }, "geometry": { "type": "Polygon", "coordinates": [ [ [ -100.9455, 36.9982 ], [ -100.9455, 36.8487 ], [ -100.9539, 36.8482 ], [ -100.9541, 36.4996 ], [ -100.6483, 36.4995 ], [ -100.3345, 36.4994 ], [ -100.0038, 36.4997 ], [ -100.0032, 36.5932 ], [ -100.0039, 36.7755 ], [ -100.0026, 37.0017 ], [ -100.1157, 37.0022 ], [ -100.5516, 37.0006 ], [ -100.9455, 36.9982 ] ] ] } },
{ "type": "Feature", "properties": { "COUNTY": "Beckham" }, "geometry": { "type": "Polygon", "coordinates": [ [ [ -100.0004, 35.4224 ], [ -100.0004, 35.0299 ], [ -99.8884, 35.0299 ], [ -99.7829, 35.0301 ], [ -99.7827, 35.1169 ], [ -99.4404, 35.1169 ], [ -99.4093, 35.1145 ], [ -99.3602, 35.1167 ], [ -99.3646, 35.2045 ], [ -99.3642, 35.4653 ], [ -99.3641, 35.5088 ], [ -99.5757, 35.5089 ], [ -99.5758, 35.4217 ], [ -100.0004, 35.4224 ] ] ] } },
{ "type": "Feature", "properties": { "COUNTY": "Blaine" }, "geometry": { "type": "Polygon", "coordinates": [ [ [ -98.6369, 36.1649 ], [ -98.6362, 35.8988 ], [ -98.632, 35.8124 ], [ -98.6322, 35.5515 ], [ -98.6232, 35.5515 ], [ -98.3132, 35.5515 ], [ -98.3131, 35.7247 ], [ -98.2071, 35.7252 ], [ -98.2068, 35.8986 ], [ -98.21, 35.8986 ], [ -98.2104, 36.1649 ], [ -98.6369, 36.1649 ] ] ] } },
{ "type": "Feature", "properties": { "COUNTY": "Bryan" }, "geometry": { "type": "Polygon", "coordinates": [ [ [ -96.5885, 33.8949 ], [ -96.5974, 33.8751 ], [ -96.629, 33.8524 ], [ -96.6231, 33.8415 ], [ -96.5729, 33.8191 ], [ -96.5267, 33.8209 ], [ -96.5159, 33.7878 ], [ -96.5003, 33.7726 ], [ -96.4226, 33.776 ], [ -96.4035, 33.7463 ], [ -96.3696, 33.7168 ], [ -96.3622, 33.6918 ], [ -96.338, 33.6887 ], [ -96.31, 33.7105 ], [ -96.2965, 33.7658 ], [ -96.2636, 33.7675 ], [ -96.229, 33.748 ], [ -96.1781, 33.7605 ], [ -96.1628, 33.7888 ], [ -96.1648, 33.8178 ], [ -96.1481, 33.8378 ], [ -96.1001, 33.848 ], [ -96.0488, 33.8365 ], [ -95.9984, 33.8511 ], [ -95.9413, 33.8616 ], [ -95.9258, 33.885 ], [ -95.8452, 33.8391 ], [ -95.8008, 33.8612 ], [ -95.7706, 33.8453 ], [ -95.7614, 33.8732 ], [ -95.8369, 33.8734 ], [ -95.8611, 33.8874 ], [ -95.8786, 33.9158 ], [ -95.9189, 33.9251 ], [ -95.938, 33.9482 ], [ -95.9382, 34.1256 ], [ -95.956, 34.1491 ], [ -95.9916, 34.1568 ], [ -96.4075, 34.1573 ], [ -96.4539, 34.1574 ], [ -96.4538, 34.1141 ], [ -96.5854, 34.1145 ], [ -96.5476, 34.0636 ], [ -96.5745, 34.042 ], [ -96.5741, 34.0167 ], [ -96.5934, 34.0167 ], [ -96.6143, 33.997 ], [ -96.5936, 33.971 ], [ -96.577, 33.9644 ], [ -96.5932, 33.933 ], [ -96.581, 33.925 ], [ -96.5885, 33.8949 ] ] ] } },
{ "type": "Feature", "properties": { "COUNTY": "Caddo" }, "geometry": { "type": "Polygon", "coordinates": [ [ [ -98.6233, 35.4642 ], [ -98.6236, 35.2041 ], [ -98.618, 35.2041 ], [ -98.6207, 35.0978 ], [ -98.6198, 34.8553 ], [ -98.0931, 34.855 ], [ -98.0929, 35.0869 ], [ -98.096, 35.3777 ], [ -98.3063, 35.3772 ], [ -98.3065, 35.5362 ], [ -98.3132, 35.5515 ], [ -98.6232, 35.5515 ], [ -98.6233, 35.4642 ] ] ] } },
{ "type": "Feature", "properties": { "COUNTY": "Canadian" }, "geometry": { "type": "Polygon", "coordinates": [ [ [ -98.2071, 35.7252 ], [ -98.3131, 35.7247 ], [ -98.3132, 35.5515 ], [ -98.3065, 35.5362 ], [ -98.3063, 35.3772 ], [ -98.096, 35.3777 ], [ -98.0235, 35.3778 ], [ -98.0089, 35.3668 ], [ -97.9552, 35.3461 ], [ -97.9472, 35.3748 ], [ -97.9031, 35.3454 ], [ -97.8699, 35.3625 ], [ -97.8413, 35.3345 ], [ -97.7724, 35.3456 ], [ -97.7373, 35.3238 ], [ -97.7063, 35.325 ], [ -97.6714, 35.3359 ], [ -97.6714, 35.3375 ], [ -97.6714, 35.3772 ], [ -97.674, 35.5511 ], [ -97.674, 35.726 ], [ -98.2071, 35.7252 ] ] ] } },
{ "type": "Feature", "properties": { "COUNTY": "Carter" }, "geometry": { "type": "Polygon", "coordinates": [ [ [ -97.5623, 34.507 ], [ -97.5625, 34.2892 ], [ -97.5608, 34.0711 ], [ -97.2942, 34.0711 ], [ -96.9696, 34.071 ], [ -96.9684, 34.1727 ], [ -96.9335, 34.1728 ], [ -96.9333, 34.3326 ], [ -97.0292, 34.3322 ], [ -97.0426, 34.3446 ], [ -97.0382, 34.3757 ], [ -97.3521, 34.3762 ], [ -97.3522, 34.5068 ], [ -97.5623, 34.507 ] ] ] } },
{ "type": "Feature", "properties": { "COUNTY": "Cherokee" }, "geometry": { "type": "Polygon", "coordinates": [ [ [ -95.2079, 36.0748 ], [ -95.2081, 36.0405 ], [ -95.2253, 36.0398 ], [ -95.2253, 36.0092 ], [ -95.2787, 35.9641 ], [ -95.2693, 35.9294 ], [ -95.283, 35.9082 ], [ -95.2577, 35.8773 ], [ -95.2325, 35.8727 ], [ -95.2315, 35.8512 ], [ -95.2657, 35.8133 ], [ -95.1272, 35.8128 ], [ -95.1272, 35.6388 ], [ -94.8078, 35.6385 ], [ -94.8075, 35.9009 ], [ -94.7974, 35.9009 ], [ -94.7974, 36.1617 ], [ -95.0113, 36.1618 ], [ -95.1185, 36.1616 ], [ -95.1184, 36.0745 ], [ -95.2079, 36.0748 ] ] ] } },
{ "type": "Feature", "properties": { "COUNTY": "Choctaw" }, "geometry": { "type": "Polygon", "coordinates": [ [ [ -95.9916, 34.1568 ], [ -95.956, 34.1491 ], [ -95.9382, 34.1256 ], [ -95.938, 33.9482 ], [ -95.9189, 33.9251 ], [ -95.8786, 33.9158 ], [ -95.8611, 33.8874 ], [ -95.8369, 33.8734 ], [ -95.7614, 33.8732 ], [ -95.7564, 33.8926 ], [ -95.733, 33.8959 ], [ -95.7105, 33.885 ], [ -95.6848, 33.8902 ], [ -95.6601, 33.9101 ], [ -95.6268, 33.9079 ], [ -95.5967, 33.9421 ], [ -95.5545, 33.9281 ], [ -95.5509, 33.893 ], [ -95.5333, 33.8812 ], [ -95.4725, 33.8803 ], [ -95.4409, 33.8664 ], [ -95.3625, 33.8666 ], [ -95.3349, 33.8768 ], [ -95.2788, 33.8779 ], [ -95.2527, 33.8942 ], [ -95.2502, 33.9385 ], [ -95.2141, 33.9621 ], [ -95.1559, 33.9369 ], [ -95.1565, 34.157 ], [ -95.3823, 34.1569 ], [ -95.7794, 34.1567 ], [ -95.9916, 34.1568 ] ] ] } },
{ "type": "Feature", "properties": { "COUNTY": "Cimarron" }, "geometry": { "type": "Polygon", "coordinates": [ [ [ -102.0282, 36.9931 ], [ -102.3554, 36.9946 ], [ -102.6981, 36.9951 ], [ -102.8125, 36.9997 ], [ -102.987, 36.9985 ], [ -103.0022, 37.0001 ], [ -103.0025, 36.6752 ], [ -103.0024, 36.5004 ], [ -102.5707, 36.5004 ], [ -102.1625, 36.5003 ], [ -102.0323, 36.5006 ], [ -102.0321, 36.8492 ], [ -102.0283, 36.8494 ], [ -102.0282, 36.9931 ] ] ] } },
{ "type": "Feature", "properties": { "COUNTY": "Cleveland" }, "geometry": { "type": "Polygon", "coordinates": [ [ [ -97.6714, 35.3375 ], [ -97.6525, 35.3334 ], [ -97.6178, 35.3052 ], [ -97.5814, 35.3025 ], [ -97.557, 35.2884 ], [ -97.5548, 35.262 ], [ -97.5665, 35.2474 ], [ -97.5548, 35.2243 ], [ -97.4427, 35.1604 ], [ -97.4382, 35.147 ], [ -97.4071, 35.1381 ], [ -97.4021, 35.0864 ], [ -97.3641, 35.0846 ], [ -97.3505, 35.0512 ], [ -97.358, 35.0337 ], [ -97.3415, 34.964 ], [ -97.3217, 34.9542 ], [ -97.2996, 34.9646 ], [ -97.1957, 34.936 ], [ -97.1423, 34.9282 ], [ -97.1417, 35.203 ], [ -97.1421, 35.3769 ], [ -97.6714, 35.3772 ], [ -97.6714, 35.3375 ] ] ] } },
{ "type": "Feature", "properties": { "COUNTY": "Coal" }, "geometry": { "type": "Polygon", "coordinates": [ [ [ -96.5138, 34.5054 ], [ -96.5138, 34.4196 ], [ -96.4071, 34.4184 ], [ -96.1454, 34.4183 ], [ -96.1454, 34.5059 ], [ -96.092, 34.5062 ], [ -96.092, 34.6806 ], [ -96.092, 34.7675 ], [ -96.4065, 34.7673 ], [ -96.4064, 34.68 ], [ -96.5122, 34.6801 ], [ -96.5138, 34.5054 ] ] ] } },
{ "type": "Feature", "properties": { "COUNTY": "Comanche" }, "geometry": { "type": "Polygon", "coordinates": [ [ [ -98.6198, 34.8553 ], [ -98.826, 34.8551 ], [ -98.826, 34.5944 ], [ -98.8261, 34.5074 ], [ -98.662, 34.5075 ], [ -98.662, 34.4059 ], [ -98.6095, 34.4061 ], [ -98.6096, 34.4206 ], [ -98.505, 34.4205 ], [ -98.505, 34.4494 ], [ -98.2959, 34.449 ], [ -98.2959, 34.4635 ], [ -98.244, 34.4637 ], [ -98.2441, 34.5071 ], [ -98.1422, 34.507 ], [ -98.1418, 34.6812 ], [ -98.0891, 34.6812 ], [ -98.089, 34.8407 ], [ -98.0931, 34.855 ], [ -98.6198, 34.8553 ] ] ] } },
{ "type": "Feature", "properties": { "COUNTY": "Cotton" }, "geometry": { "type": "Polygon", "coordinates": [ [ [ -98.662, 34.4059 ], [ -98.662, 34.3334 ], [ -98.6097, 34.3337 ], [ -98.61, 34.1572 ], [ -98.5771, 34.149 ], [ -98.5606, 34.1236 ], [ -98.5363, 34.1073 ], [ -98.5041, 34.0723 ], [ -98.4863, 34.0626 ], [ -98.4437, 34.0821 ], [ -98.4116, 34.0881 ], [ -98.3984, 34.1046 ], [ -98.395, 34.1313 ], [ -98.364, 34.1571 ], [ -98.3255, 34.151 ], [ -98.3002, 34.1346 ], [ -98.2565, 34.1295 ], [ -98.231, 34.134 ], [ -98.2001, 34.1168 ], [ -98.1691, 34.1142 ], [ -98.139, 34.1418 ], [ -98.1392, 34.2898 ], [ -98.1392, 34.507 ], [ -98.1422, 34.507 ], [ -98.2441, 34.5071 ], [ -98.244, 34.4637 ], [ -98.2959, 34.4635 ], [ -98.2959, 34.449 ], [ -98.505, 34.4494 ], [ -98.505, 34.4205 ], [ -98.6096, 34.4206 ], [ -98.6095, 34.4061 ], [ -98.662, 34.4059 ] ] ] } },
{ "type": "Feature", "properties": { "COUNTY": "Craig" }, "geometry": { "type": "Polygon", "coordinates": [ [ [ -95.4077, 36.9992 ], [ -95.4078, 36.9427 ], [ -95.4318, 36.9426 ], [ -95.4316, 36.5975 ], [ -95.3284, 36.5976 ], [ -95.3282, 36.5102 ], [ -95.0057, 36.5099 ], [ -95.0057, 36.5977 ], [ -94.9994, 36.6706 ], [ -94.9992, 36.9431 ], [ -95.0281, 36.9665 ], [ -95.034, 36.9943 ], [ -95.0076, 36.9995 ], [ -95.4077, 36.9992 ] ] ] } },
{ "type": "Feature", "properties": { "COUNTY": "Creek" }, "geometry": { "type": "Polygon", "coordinates": [ [ [ -96.6221, 36.1599 ], [ -96.6225, 36.061 ], [ -96.6196, 35.9416 ], [ -96.6208, 35.639 ], [ -96.1926, 35.6391 ], [ -96.1924, 35.857 ], [ -96.0331, 35.8568 ], [ -96.0296, 35.9011 ], [ -96.0296, 36.0754 ], [ -96.2979, 36.0758 ], [ -96.2979, 36.1623 ], [ -96.6209, 36.1634 ], [ -96.6221, 36.1599 ] ] ] } },
{ "type": "Feature", "properties": { "COUNTY": "Custer" }, "geometry": { "type": "Polygon", "coordinates": [ [ [ -99.3758, 35.8122 ], [ -99.377, 35.5517 ], [ -99.3641, 35.5517 ], [ -99.3641, 35.5088 ], [ -99.3642, 35.4653 ], [ -99.0993, 35.4652 ], [ -98.6233, 35.4642 ], [ -98.6232, 35.5515 ], [ -98.6322, 35.5515 ], [ -98.632, 35.8124 ], [ -99.0113, 35.8123 ], [ -99.3758, 35.8122 ] ] ] } },
{ "type": "Feature", "properties": { "COUNTY": "Delaware" }, "geometry": { "type": "Polygon", "coordinates": [ [ [ -95.0113, 36.1618 ], [ -94.7974, 36.1617 ], [ -94.5628, 36.1619 ], [ -94.5862, 36.3 ], [ -94.6179, 36.4994 ], [ -94.618, 36.6679 ], [ -94.7792, 36.6678 ], [ -94.7825, 36.6706 ], [ -94.9994, 36.6706 ], [ -95.0057, 36.5977 ], [ -95.0057, 36.5099 ], [ -95.0055, 36.2487 ], [ -95.0113, 36.1618 ] ] ] } },
{ "type": "Feature", "properties": { "COUNTY": "Dewey" }, "geometry": { "type": "Polygon", "coordinates": [ [ [ -99.3821, 36.1643 ], [ -99.381, 36.0129 ], [ -99.3812, 35.8989 ], [ -99.3758, 35.8122 ], [ -99.0113, 35.8123 ], [ -98.632, 35.8124 ], [ -98.6362, 35.8988 ], [ -98.6369, 36.1649 ], [ -98.8948, 36.1612 ], [ -98.9558, 36.1616 ], [ -99.3821, 36.1643 ] ] ] } },
{ "type": "Feature", "properties": { "COUNTY": "Ellis" }, "geometry": { "type": "Polygon", "coordinates": [ [ [ -100.0032, 36.5932 ], [ -100.0038, 36.4997 ], [ -100.0004, 36.4997 ], [ -100.0004, 36.2735 ], [ -100.0004, 35.8812 ], [ -99.9721, 35.8888 ], [ -99.9252, 35.9137 ], [ -99.9056, 35.9367 ], [ -99.9125, 35.955 ], [ -99.8883, 35.9879 ], [ -99.838, 36.0068 ], [ -99.8094, 36.0 ], [ -99.8023, 35.9716 ], [ -99.8102, 35.9289 ], [ -99.8014, 35.9106 ], [ -99.7611, 35.8807 ], [ -99.7464, 35.882 ], [ -99.7171, 35.8598 ], [ -99.6177, 35.8429 ], [ -99.6018, 35.8559 ], [ -99.5585, 35.866 ], [ -99.5496, 35.9002 ], [ -99.5153, 35.9258 ], [ -99.4958, 35.9787 ], [ -99.4519, 36.0055 ], [ -99.381, 36.0129 ], [ -99.3821, 36.1643 ], [ -99.5961, 36.1641 ], [ -99.5959, 36.2468 ], [ -99.6051, 36.2467 ], [ -99.6056, 36.5928 ], [ -100.0032, 36.5932 ] ] ] } },
{ "type": "Feature", "properties": { "COUNTY": "Garfield" }, "geometry": { "type": "Polygon", "coordinates": [ [ [ -98.1044, 36.4631 ], [ -98.1039, 36.1649 ], [ -97.6756, 36.1647 ], [ -97.4608, 36.1645 ], [ -97.4616, 36.5936 ], [ -97.4625, 36.5936 ], [ -97.7742, 36.5933 ], [ -98.1043, 36.5936 ], [ -98.1044, 36.4631 ] ] ] } },
{ "type": "Feature", "properties": { "COUNTY": "Garvin" }, "geometry": { "type": "Polygon", "coordinates": [ [ [ -97.6685, 34.6813 ], [ -97.563, 34.6812 ], [ -97.5623, 34.507 ], [ -97.3522, 34.5068 ], [ -97.144, 34.5066 ], [ -97.1603, 34.5297 ], [ -97.2001, 34.6228 ], [ -97.1426, 34.6226 ], [ -97.1427, 34.6371 ], [ -96.9325, 34.6368 ], [ -96.9324, 34.8545 ], [ -97.3002, 34.8552 ], [ -97.6681, 34.8552 ], [ -97.6685, 34.6813 ] ] ] } },
{ "type": "Feature", "properties": { "COUNTY": "Grady" }, "geometry": { "type": "Polygon", "coordinates": [ [ [ -98.096, 35.3777 ], [ -98.0929, 35.0869 ], [ -98.0931, 34.855 ], [ -98.089, 34.8407 ], [ -98.0891, 34.6812 ], [ -97.6685, 34.6813 ], [ -97.6681, 34.8552 ], [ -97.6706, 34.8697 ], [ -97.6705, 35.0805 ], [ -97.6714, 35.3359 ], [ -97.7063, 35.325 ], [ -97.7373, 35.3238 ], [ -97.7724, 35.3456 ], [ -97.8413, 35.3345 ], [ -97.8699, 35.3625 ], [ -97.9031, 35.3454 ], [ -97.9472, 35.3748 ], [ -97.9552, 35.3461 ], [ -98.0089, 35.3668 ], [ -98.0235, 35.3778 ], [ -98.096, 35.3777 ] ] ] } },
{ "type": "Feature", "properties": { "COUNTY": "Grant" }, "geometry": { "type": "Polygon", "coordinates": [ [ [ -98.112, 36.9981 ], [ -98.1096, 36.942 ], [ -98.1105, 36.7676 ], [ -98.1093, 36.5936 ], [ -98.1043, 36.5936 ], [ -97.7742, 36.5933 ], [ -97.4625, 36.5936 ], [ -97.4624, 36.9987 ], [ -97.8765, 36.9986 ], [ -98.112, 36.9981 ] ] ] } },
{ "type": "Feature", "properties": { "COUNTY": "Greer" }, "geometry": { "type": "Polygon", "coordinates": [ [ [ -99.8884, 35.0299 ], [ -99.8882, 34.9439 ], [ -99.7311, 34.9441 ], [ -99.7309, 34.857 ], [ -99.7198, 34.857 ], [ -99.7198, 34.7685 ], [ -99.6848, 34.7684 ], [ -99.6672, 34.7537 ], [ -99.6668, 34.7246 ], [ -99.4232, 34.725 ], [ -99.437, 34.7365 ], [ -99.4373, 34.7691 ], [ -99.4057, 34.769 ], [ -99.4058, 34.813 ], [ -99.2464, 34.812 ], [ -99.2465, 34.8221 ], [ -99.2561, 34.8363 ], [ -99.3062, 34.8576 ], [ -99.3159, 34.8856 ], [ -99.2909, 34.8867 ], [ -99.2984, 34.9241 ], [ -99.3289, 34.952 ], [ -99.3481, 34.9833 ], [ -99.3268, 35.0189 ], [ -99.3278, 35.0417 ], [ -99.3502, 35.0437 ], [ -99.3649, 35.0616 ], [ -99.3681, 35.0867 ], [ -99.3982, 35.0942 ], [ -99.4093, 35.1145 ], [ -99.4404, 35.1169 ], [ -99.7827, 35.1169 ], [ -99.7829, 35.0301 ], [ -99.8884, 35.0299 ] ] ] } },
{ "type": "Feature", "properties": { "COUNTY": "Harmon" }, "geometry": { "type": "Polygon", "coordinates": [ [ [ -100.0004, 35.0299 ], [ -100.0004, 34.5605 ], [ -99.9715, 34.5622 ], [ -99.9457, 34.5793 ], [ -99.8872, 34.5491 ], [ -99.8447, 34.5068 ], [ -99.6665, 34.5071 ], [ -99.6668, 34.7246 ], [ -99.6672, 34.7537 ], [ -99.6848, 34.7684 ], [ -99.7198, 34.7685 ], [ -99.7198, 34.857 ], [ -99.7309, 34.857 ], [ -99.7311, 34.9441 ], [ -99.8882, 34.9439 ], [ -99.8884, 35.0299 ], [ -100.0004, 35.0299 ] ] ] } },
{ "type": "Feature", "properties": { "COUNTY": "Harper" }, "geometry": { "type": "Polygon", "coordinates": [ [ [ -100.0026, 37.0017 ], [ -100.0039, 36.7755 ], [ -100.0032, 36.5932 ], [ -99.6056, 36.5928 ], [ -99.2999, 36.595 ], [ -99.2953, 36.5964 ], [ -99.2952, 36.8196 ], [ -99.3221, 36.8572 ], [ -99.3742, 36.8796 ], [ -99.3981, 36.9215 ], [ -99.4205, 36.9411 ], [ -99.4434, 36.9955 ], [ -99.4562, 36.9995 ], [ -99.6487, 36.9996 ], [ -100.0026, 37.0017 ] ] ] } },
{ "type": "Feature", "properties": { "COUNTY": "Haskell" }, "geometry": { "type": "Polygon", "coordinates": [ [ [ -95.4513, 35.296 ], [ -95.451, 35.2028 ], [ -95.455, 35.1604 ], [ -95.3495, 35.16 ], [ -95.3494, 35.0585 ], [ -95.0596, 35.0577 ], [ -94.9279, 35.0583 ], [ -94.9278, 35.2026 ], [ -94.8143, 35.2023 ], [ -94.8136, 35.3233 ], [ -94.8421, 35.3711 ], [ -94.8659, 35.3566 ], [ -94.9119, 35.3466 ], [ -94.8947, 35.3731 ], [ -94.9018, 35.3979 ], [ -94.9257, 35.3928 ], [ -94.9489, 35.4073 ], [ -94.9868, 35.4084 ], [ -95.0199, 35.425 ], [ -95.0249, 35.4531 ], [ -95.0499, 35.4589 ], [ -95.0688, 35.4489 ], [ -95.0833, 35.4115 ], [ -95.1233, 35.3723 ], [ -95.1577, 35.3715 ], [ -95.1826, 35.3369 ], [ -95.1705, 35.3101 ], [ -95.1992, 35.3036 ], [ -95.2313, 35.2659 ], [ -95.2622, 35.269 ], [ -95.2876, 35.2948 ], [ -95.3118, 35.3027 ], [ -95.3448, 35.293 ], [ -95.3937, 35.3276 ], [ -95.4513, 35.296 ] ] ] } },
{ "type": "Feature", "properties": { "COUNTY": "Hughes" }, "geometry": { "type": "Polygon", "coordinates": [ [ [ -96.4908, 34.9106 ], [ -96.4604, 34.9165 ], [ -96.4356, 34.9023 ], [ -96.4138, 34.9156 ], [ -96.4065, 34.7673 ], [ -96.092, 34.7675 ], [ -96.089, 34.8547 ], [ -96.0888, 35.0499 ], [ -96.0692, 35.0566 ], [ -96.0627, 35.0881 ], [ -96.0136, 35.1418 ], [ -95.9831, 35.1517 ], [ -95.9815, 35.2898 ], [ -96.4414, 35.2901 ], [ -96.4413, 35.1158 ], [ -96.4904, 35.1159 ], [ -96.4908, 34.9106 ] ] ] } },
{ "type": "Feature", "properties": { "COUNTY": "Jackson" }, "geometry": { "type": "Polygon", "coordinates": [ [ [ -99.8447, 34.5068 ], [ -99.8223, 34.4981 ], [ -99.8143, 34.4762 ], [ -99.7542, 34.4213 ], [ -99.7164, 34.4028 ], [ -99.695, 34.3783 ], [ -99.6627, 34.3737 ], [ -99.6481, 34.3823 ], [ -99.6, 34.3747 ], [ -99.5845, 34.3912 ], [ -99.5801, 34.4166 ], [ -99.4999, 34.4096 ], [ -99.43, 34.381 ], [ -99.3968, 34.3794 ], [ -99.3876, 34.412 ], [ -99.395, 34.4421 ], [ -99.381, 34.4569 ], [ -99.3287, 34.4224 ], [ -99.2947, 34.4154 ], [ -99.2376, 34.3667 ], [ -99.2343, 34.3535 ], [ -99.2069, 34.3383 ], [ -99.1928, 34.3549 ], [ -99.2289, 34.3877 ], [ -99.2381, 34.425 ], [ -99.2212, 34.4642 ], [ -99.1968, 34.5424 ], [ -99.1633, 34.588 ], [ -99.0997, 34.5941 ], [ -99.0885, 34.6152 ], [ -99.1031, 34.6379 ], [ -99.0953, 34.6689 ], [ -99.0433, 34.6773 ], [ -99.0525, 34.7016 ], [ -99.0986, 34.6952 ], [ -99.1491, 34.7024 ], [ -99.1612, 34.7418 ], [ -99.1534, 34.8357 ], [ -99.1819, 34.8596 ], [ -99.2116, 34.8312 ], [ -99.2465, 34.8221 ], [ -99.2464, 34.812 ], [ -99.4058, 34.813 ], [ -99.4057, 34.769 ], [ -99.4373, 34.7691 ], [ -99.437, 34.7365 ], [ -99.4232, 34.725 ], [ -99.6668, 34.7246 ], [ -99.6665, 34.5071 ], [ -99.8447, 34.5068 ] ] ] } },
{ "type": "Feature", "properties": { "COUNTY": "Jefferson" }, "geometry": { "type": "Polygon", "coordinates": [ [ [ -98.1392, 34.2898 ], [ -98.139, 34.1418 ], [ -98.1095, 34.1541 ], [ -98.0907, 34.122 ], [ -98.1194, 34.0845 ], [ -98.1146, 34.0623 ], [ -98.0838, 34.0417 ], [ -98.0984, 34.0239 ], [ -98.0828, 34.0024 ], [ -98.0195, 33.9938 ], [ -97.9717, 34.0054 ], [ -97.9459, 33.9884 ], [ -97.9604, 33.9519 ], [ -97.9572, 33.9144 ], [ -97.9845, 33.9007 ], [ -97.9678, 33.8824 ], [ -97.9367, 33.8792 ], [ -97.8967, 33.858 ], [ -97.8658, 33.8494 ], [ -97.8343, 33.8577 ], [ -97.8026, 33.88 ], [ -97.802, 33.8942 ], [ -97.7323, 33.9367 ], [ -97.6979, 33.9773 ], [ -97.6718, 33.9914 ], [ -97.6338, 33.9813 ], [ -97.5888, 33.9519 ], [ -97.597, 33.9202 ], [ -97.5893, 33.9039 ], [ -97.5609, 33.8996 ], [ -97.5608, 34.0711 ], [ -97.5625, 34.2892 ], [ -97.999, 34.2891 ], [ -98.1392, 34.2898 ] ] ] } },
{ "type": "Feature", "properties": { "COUNTY": "Johnston" }, "geometry": { "type": "Polygon", "coordinates": [ [ [ -96.9335, 34.1728 ], [ -96.67, 34.1725 ], [ -96.6561, 34.1612 ], [ -96.6131, 34.152 ], [ -96.5854, 34.1145 ], [ -96.4538, 34.1141 ], [ -96.4539, 34.1574 ], [ -96.4075, 34.1573 ], [ -96.4071, 34.4184 ], [ -96.5138, 34.4196 ], [ -96.5138, 34.5054 ], [ -96.8273, 34.5061 ], [ -96.8808, 34.5061 ], [ -96.881, 34.333 ], [ -96.9333, 34.3326 ], [ -96.9335, 34.1728 ] ] ] } },
{ "type": "Feature", "properties": { "COUNTY": "Kay" }, "geometry": { "type": "Polygon", "coordinates": [ [ [ -97.4625, 36.5936 ], [ -97.4616, 36.5936 ], [ -97.0576, 36.5939 ], [ -97.0447, 36.6027 ], [ -97.0641, 36.6842 ], [ -97.0307, 36.7016 ], [ -96.9957, 36.6882 ], [ -96.9319, 36.6861 ], [ -96.9209, 36.7171 ], [ -96.8886, 36.7518 ], [ -96.8341, 36.7434 ], [ -96.8226, 36.7676 ], [ -96.7887, 36.7676 ], [ -96.7887, 36.782 ], [ -96.7524, 36.7821 ], [ -96.7522, 36.9412 ], [ -96.7498, 36.999 ], [ -97.0301, 36.9989 ], [ -97.4624, 36.9987 ], [ -97.4625, 36.5936 ] ] ] } },
{ "type": "Feature", "properties": { "COUNTY": "Kingfisher" }, "geometry": { "type": "Polygon", "coordinates": [ [ [ -98.2104, 36.1649 ], [ -98.21, 35.8986 ], [ -98.2068, 35.8986 ], [ -98.2071, 35.7252 ], [ -97.674, 35.726 ], [ -97.6757, 35.9566 ], [ -97.6756, 36.1647 ], [ -98.1039, 36.1649 ], [ -98.2104, 36.1649 ] ] ] } },
{ "type": "Feature", "properties": { "COUNTY": "Kiowa" }, "geometry": { "type": "Polygon", "coordinates": [ [ [ -99.4093, 35.1145 ], [ -99.3982, 35.0942 ], [ -99.3681, 35.0867 ], [ -99.3649, 35.0616 ], [ -99.3502, 35.0437 ], [ -99.3278, 35.0417 ], [ -99.3268, 35.0189 ], [ -99.3481, 34.9833 ], [ -99.3289, 34.952 ], [ -99.2984, 34.9241 ], [ -99.2909, 34.8867 ], [ -99.3159, 34.8856 ], [ -99.3062, 34.8576 ], [ -99.2561, 34.8363 ], [ -99.2465, 34.8221 ], [ -99.2116, 34.8312 ], [ -99.1819, 34.8596 ], [ -99.1534, 34.8357 ], [ -99.1612, 34.7418 ], [ -99.1491, 34.7024 ], [ -99.0986, 34.6952 ], [ -99.0525, 34.7016 ], [ -99.0433, 34.6773 ], [ -99.0953, 34.6689 ], [ -99.1031, 34.6379 ], [ -99.001, 34.6379 ], [ -99.0011, 34.5944 ], [ -98.826, 34.5944 ], [ -98.826, 34.8551 ], [ -98.6198, 34.8553 ], [ -98.6207, 35.0978 ], [ -98.63, 35.1164 ], [ -98.6722, 35.119 ], [ -98.6781, 35.1079 ], [ -98.7492, 35.1163 ], [ -98.9444, 35.1164 ], [ -99.3602, 35.1167 ], [ -99.4093, 35.1145 ] ] ] } },
{ "type": "Feature", "properties": { "COUNTY": "Latimer" }, "geometry": { "type": "Polygon", "coordinates": [ [ [ -95.5145, 34.6807 ], [ -95.0596, 34.6807 ], [ -95.0595, 34.855 ], [ -94.9978, 34.8549 ], [ -94.9981, 34.942 ], [ -94.9277, 34.942 ], [ -94.9279, 35.0583 ], [ -95.0596, 35.0577 ], [ -95.3494, 35.0585 ], [ -95.3494, 35.0293 ], [ -95.5077, 35.0293 ], [ -95.5075, 34.8549 ], [ -95.5141, 34.8549 ], [ -95.5145, 34.6807 ] ] ] } },
{ "type": "Feature", "properties": { "COUNTY": "Le Flore" }, "geometry": { "type": "Polygon", "coordinates": [ [ [ -94.9279, 35.0583 ], [ -94.9277, 34.942 ], [ -94.9981, 34.942 ], [ -94.9978, 34.8549 ], [ -95.0595, 34.855 ], [ -95.0596, 34.6807 ], [ -94.9376, 34.6808 ], [ -94.9376, 34.5073 ], [ -94.4612, 34.5075 ], [ -94.4575, 34.643 ], [ -94.4491, 34.8906 ], [ -94.4389, 35.1872 ], [ -94.4316, 35.3695 ], [ -94.4356, 35.3861 ], [ -94.4836, 35.3694 ], [ -94.4805, 35.3523 ], [ -94.4948, 35.3298 ], [ -94.4946, 35.3011 ], [ -94.5546, 35.3102 ], [ -94.5691, 35.3256 ], [ -94.5948, 35.328 ], [ -94.6159, 35.3041 ], [ -94.648, 35.2912 ], [ -94.6688, 35.295 ], [ -94.6849, 35.3273 ], [ -94.73, 35.3519 ], [ -94.7784, 35.3509 ], [ -94.7944, 35.3271 ], [ -94.8136, 35.3233 ], [ -94.8143, 35.2023 ], [ -94.9278, 35.2026 ], [ -94.9279, 35.0583 ] ] ] } },
{ "type": "Feature", "properties": { "COUNTY": "Lincoln" }, "geometry": { "type": "Polygon", "coordinates": [ [ [ -97.1411, 35.7244 ], [ -97.1415, 35.464 ], [ -96.6247, 35.4627 ], [ -96.6208, 35.639 ], [ -96.6196, 35.9416 ], [ -96.9095, 35.9415 ], [ -97.1406, 35.942 ], [ -97.1411, 35.7244 ] ] ] } },
{ "type": "Feature", "properties": { "COUNTY": "Logan" }, "geometry": { "type": "Polygon", "coordinates": [ [ [ -97.6756, 36.1647 ], [ -97.6757, 35.9566 ], [ -97.674, 35.726 ], [ -97.1411, 35.7244 ], [ -97.1406, 35.942 ], [ -97.2036, 35.9448 ], [ -97.2212, 35.9646 ], [ -97.2776, 35.9738 ], [ -97.2946, 36.0056 ], [ -97.3236, 36.0109 ], [ -97.3539, 35.9849 ], [ -97.3541, 36.1591 ], [ -97.3539, 36.1643 ], [ -97.4608, 36.1645 ], [ -97.6756, 36.1647 ] ] ] } },
{ "type": "Feature", "properties": { "COUNTY": "Love" }, "geometry": { "type": "Polygon", "coordinates": [ [ [ -97.5609, 33.8996 ], [ -97.501, 33.9196 ], [ -97.4604, 33.904 ], [ -97.4515, 33.8709 ], [ -97.4629, 33.8418 ], [ -97.4265, 33.8194 ], [ -97.3729, 33.8194 ], [ -97.3392, 33.8621 ], [ -97.3144, 33.867 ], [ -97.3056, 33.8864 ], [ -97.2703, 33.8582 ], [ -97.2492, 33.8751 ], [ -97.2462, 33.9003 ], [ -97.2109, 33.9161 ], [ -97.1796, 33.8922 ], [ -97.1666, 33.8473 ], [ -97.2035, 33.8218 ], [ -97.2057, 33.8029 ], [ -97.1722, 33.7375 ], [ -97.1261, 33.7169 ], [ -97.0971, 33.7278 ], [ -97.0852, 33.7655 ], [ -97.0948, 33.7985 ], [ -97.0786, 33.8128 ], [ -97.0482, 33.8175 ], [ -97.0461, 33.8396 ], [ -97.0214, 33.8464 ], [ -96.9838, 33.8909 ], [ -96.995, 33.932 ], [ -96.9348, 33.9544 ], [ -96.9348, 34.0129 ], [ -96.9697, 34.0129 ], [ -96.9696, 34.071 ], [ -97.2942, 34.0711 ], [ -97.5608, 34.0711 ], [ -97.5609, 33.8996 ] ] ] } },
{ "type": "Feature", "properties": { "COUNTY": "Major" }, "geometry": { "type": "Polygon", "coordinates": [ [ [ -98.9603, 36.5069 ], [ -98.9606, 36.2467 ], [ -98.9558, 36.1616 ], [ -98.8948, 36.1612 ], [ -98.6369, 36.1649 ], [ -98.2104, 36.1649 ], [ -98.1039, 36.1649 ], [ -98.1044, 36.4631 ], [ -98.5336, 36.4632 ], [ -98.5337, 36.3979 ], [ -98.5525, 36.4023 ], [ -98.5935, 36.392 ], [ -98.6254, 36.3926 ], [ -98.6995, 36.416 ], [ -98.7268, 36.4453 ], [ -98.7777, 36.4484 ], [ -98.8078, 36.4607 ], [ -98.8437, 36.5063 ], [ -98.9603, 36.5069 ] ] ] } },
{ "type": "Feature", "properties": { "COUNTY": "Marshall" }, "geometry": { "type": "Polygon", "coordinates": [ [ [ -96.9696, 34.071 ], [ -96.9697, 34.0129 ], [ -96.9348, 34.0129 ], [ -96.9348, 33.9544 ], [ -96.9163, 33.9578 ], [ -96.8994, 33.9337 ], [ -96.8957, 33.8964 ], [ -96.8664, 33.8531 ], [ -96.8416, 33.8529 ], [ -96.8322, 33.8748 ], [ -96.7943, 33.8689 ], [ -96.7796, 33.8579 ], [ -96.7616, 33.8244 ], [ -96.7124, 33.8316 ], [ -96.6907, 33.85 ], [ -96.6735, 33.9123 ], [ -96.6599, 33.9167 ], [ -96.6283, 33.8945 ], [ -96.5885, 33.8949 ], [ -96.581, 33.925 ], [ -96.5932, 33.933 ], [ -96.577, 33.9644 ], [ -96.5936, 33.971 ], [ -96.6143, 33.997 ], [ -96.5934, 34.0167 ], [ -96.5741, 34.0167 ], [ -96.5745, 34.042 ], [ -96.5476, 34.0636 ], [ -96.5854, 34.1145 ], [ -96.6131, 34.152 ], [ -96.6561, 34.1612 ], [ -96.67, 34.1725 ], [ -96.9335, 34.1728 ], [ -96.9684, 34.1727 ], [ -96.9696, 34.071 ] ] ] } },
{ "type": "Feature", "properties": { "COUNTY": "Mayes" }, "geometry": { "type": "Polygon", "coordinates": [ [ [ -95.3282, 36.5102 ], [ -95.4356, 36.5102 ], [ -95.4355, 36.2493 ], [ -95.4399, 36.2062 ], [ -95.44, 36.0753 ], [ -95.2079, 36.0748 ], [ -95.1184, 36.0745 ], [ -95.1185, 36.1616 ], [ -95.0113, 36.1618 ], [ -95.0055, 36.2487 ], [ -95.0057, 36.5099 ], [ -95.3282, 36.5102 ] ] ] } },
{ "type": "Feature", "properties": { "COUNTY": "McClain" }, "geometry": { "type": "Polygon", "coordinates": [ [ [ -97.6714, 35.3359 ], [ -97.6705, 35.0805 ], [ -97.6706, 34.8697 ], [ -97.6681, 34.8552 ], [ -97.3002, 34.8552 ], [ -96.9324, 34.8545 ], [ -96.9306, 34.9644 ], [ -96.9673, 34.9347 ], [ -97.0159, 34.9074 ], [ -97.0797, 34.9289 ], [ -97.1168, 34.9352 ], [ -97.1423, 34.9282 ], [ -97.1957, 34.936 ], [ -97.2996, 34.9646 ], [ -97.3217, 34.9542 ], [ -97.3415, 34.964 ], [ -97.358, 35.0337 ], [ -97.3505, 35.0512 ], [ -97.3641, 35.0846 ], [ -97.4021, 35.0864 ], [ -97.4071, 35.1381 ], [ -97.4382, 35.147 ], [ -97.4427, 35.1604 ], [ -97.5548, 35.2243 ], [ -97.5665, 35.2474 ], [ -97.5548, 35.262 ], [ -97.557, 35.2884 ], [ -97.5814, 35.3025 ], [ -97.6178, 35.3052 ], [ -97.6525, 35.3334 ], [ -97.6714, 35.3375 ], [ -97.6714, 35.3359 ] ] ] } },
{ "type": "Feature", "properties": { "COUNTY": "McCurtain" }, "geometry": { "type": "Polygon", "coordinates": [ [ [ -95.1565, 34.157 ], [ -95.1559, 33.9369 ], [ -95.1212, 33.9313 ], [ -95.1171, 33.9036 ], [ -95.0891, 33.9142 ], [ -95.0601, 33.9019 ], [ -95.0466, 33.8626 ], [ -94.9927, 33.8524 ], [ -94.9689, 33.8609 ], [ -94.9535, 33.8165 ], [ -94.8747, 33.7492 ], [ -94.8493, 33.7396 ], [ -94.7883, 33.7353 ], [ -94.7482, 33.7247 ], [ -94.7533, 33.7103 ], [ -94.7359, 33.6916 ], [ -94.6176, 33.6812 ], [ -94.603, 33.6631 ], [ -94.5803, 33.6788 ], [ -94.5706, 33.6522 ], [ -94.5514, 33.6285 ], [ -94.5046, 33.6207 ], [ -94.4859, 33.6379 ], [ -94.4788, 33.8815 ], [ -94.4687, 34.2492 ], [ -94.4612, 34.5075 ], [ -94.9376, 34.5073 ], [ -95.0468, 34.5073 ], [ -95.0466, 34.2438 ], [ -95.1513, 34.2437 ], [ -95.1565, 34.157 ] ] ] } },
{ "type": "Feature", "properties": { "COUNTY": "McIntosh" }, "geometry": { "type": "Polygon", "coordinates": [ [ [ -95.9815, 35.2898 ], [ -95.9831, 35.1517 ], [ -95.9059, 35.144 ], [ -95.8707, 35.186 ], [ -95.8389, 35.1843 ], [ -95.7933, 35.1973 ], [ -95.7685, 35.179 ], [ -95.7439, 35.1919 ], [ -95.7162, 35.1893 ], [ -95.68, 35.2035 ], [ -95.681, 35.221 ], [ -95.6157, 35.2497 ], [ -95.5994, 35.2216 ], [ -95.5727, 35.2443 ], [ -95.5134, 35.2687 ], [ -95.5004, 35.3009 ], [ -95.4513, 35.296 ], [ -95.3937, 35.3276 ], [ -95.3448, 35.293 ], [ -95.3448, 35.5517 ], [ -95.713, 35.5517 ], [ -95.8224, 35.5517 ], [ -95.8224, 35.4637 ], [ -95.8753, 35.4636 ], [ -95.8754, 35.3767 ], [ -95.9815, 35.3768 ], [ -95.9815, 35.2898 ] ] ] } },
{ "type": "Feature", "properties": { "COUNTY": "Murray" }, "geometry": { "type": "Polygon", "coordinates": [ [ [ -97.3522, 34.5068 ], [ -97.3521, 34.3762 ], [ -97.0382, 34.3757 ], [ -97.0426, 34.3446 ], [ -97.0292, 34.3322 ], [ -96.9333, 34.3326 ], [ -96.881, 34.333 ], [ -96.8808, 34.5061 ], [ -96.8273, 34.5061 ], [ -96.8271, 34.5932 ], [ -96.9324, 34.5933 ], [ -96.9325, 34.6368 ], [ -97.1427, 34.6371 ], [ -97.1426, 34.6226 ], [ -97.2001, 34.6228 ], [ -97.1603, 34.5297 ], [ -97.144, 34.5066 ], [ -97.3522, 34.5068 ] ] ] } },
{ "type": "Feature", "properties": { "COUNTY": "Muskogee" }, "geometry": { "type": "Polygon", "coordinates": [ [ [ -95.7661, 35.8563 ], [ -95.7663, 35.7257 ], [ -95.7131, 35.7258 ], [ -95.713, 35.5517 ], [ -95.3448, 35.5517 ], [ -95.3448, 35.293 ], [ -95.3118, 35.3027 ], [ -95.2876, 35.2948 ], [ -95.2622, 35.269 ], [ -95.2313, 35.2659 ], [ -95.1992, 35.3036 ], [ -95.1705, 35.3101 ], [ -95.1826, 35.3369 ], [ -95.1577, 35.3715 ], [ -95.1233, 35.3723 ], [ -95.0833, 35.4115 ], [ -95.0688, 35.4489 ], [ -95.0499, 35.4589 ], [ -95.0883, 35.4648 ], [ -95.0961, 35.4857 ], [ -95.1323, 35.526 ], [ -95.1273, 35.5518 ], [ -95.1272, 35.6388 ], [ -95.1272, 35.8128 ], [ -95.2657, 35.8133 ], [ -95.3444, 35.8136 ], [ -95.3604, 35.8224 ], [ -95.4202, 35.7996 ], [ -95.4775, 35.8042 ], [ -95.5207, 35.7922 ], [ -95.5631, 35.7879 ], [ -95.5846, 35.7656 ], [ -95.6398, 35.791 ], [ -95.6391, 35.8329 ], [ -95.6504, 35.8566 ], [ -95.7661, 35.8563 ] ] ] } },
{ "type": "Feature", "properties": { "COUNTY": "Noble" }, "geometry": { "type": "Polygon", "coordinates": [ [ [ -97.4616, 36.5936 ], [ -97.4608, 36.1645 ], [ -97.3539, 36.1643 ], [ -97.3541, 36.1591 ], [ -97.1407, 36.1592 ], [ -97.141, 36.2464 ], [ -96.9251, 36.2465 ], [ -96.9249, 36.3333 ], [ -97.0321, 36.3334 ], [ -97.0321, 36.507 ], [ -97.0098, 36.5069 ], [ -96.9962, 36.529 ], [ -96.9585, 36.5343 ], [ -96.9247, 36.5526 ], [ -96.8991, 36.5532 ], [ -96.8883, 36.5756 ], [ -96.9128, 36.5989 ], [ -97.0043, 36.5826 ], [ -97.0576, 36.5939 ], [ -97.4616, 36.5936 ] ] ] } },
{ "type": "Feature", "properties": { "COUNTY": "Nowata" }, "geometry": { "type": "Polygon", "coordinates": [ [ [ -95.7868, 36.9993 ], [ -95.7867, 36.9419 ], [ -95.8098, 36.9419 ], [ -95.8095, 36.5975 ], [ -95.4316, 36.5975 ], [ -95.4318, 36.9426 ], [ -95.4078, 36.9427 ], [ -95.4077, 36.9992 ], [ -95.7868, 36.9993 ] ] ] } },
{ "type": "Feature", "properties": { "COUNTY": "Okfuskee" }, "geometry": { "type": "Polygon", "coordinates": [ [ [ -96.6247, 35.4627 ], [ -96.6237, 35.4007 ], [ -96.5767, 35.4019 ], [ -96.5352, 35.3914 ], [ -96.5557, 35.4346 ], [ -96.5403, 35.4534 ], [ -96.5186, 35.4312 ], [ -96.4966, 35.4289 ], [ -96.4715, 35.463 ], [ -96.4413, 35.4677 ], [ -96.4414, 35.2901 ], [ -95.9815, 35.2898 ], [ -95.9815, 35.3768 ], [ -96.0875, 35.3769 ], [ -96.0878, 35.552 ], [ -96.1927, 35.552 ], [ -96.1926, 35.6391 ], [ -96.6208, 35.639 ], [ -96.6247, 35.4627 ] ] ] } },
{ "type": "Feature", "properties": { "COUNTY": "Oklahoma" }, "geometry": { "type": "Polygon", "coordinates": [ [ [ -97.674, 35.726 ], [ -97.674, 35.5511 ], [ -97.6714, 35.3772 ], [ -97.1421, 35.3769 ], [ -97.1415, 35.464 ], [ -97.1411, 35.7244 ], [ -97.674, 35.726 ] ] ] } },
{ "type": "Feature", "properties": { "COUNTY": "Okmulgee" }, "geometry": { "type": "Polygon", "coordinates": [ [ [ -96.1926, 35.6391 ], [ -96.1927, 35.552 ], [ -96.0878, 35.552 ], [ -96.0875, 35.3769 ], [ -95.9815, 35.3768 ], [ -95.8754, 35.3767 ], [ -95.8753, 35.4636 ], [ -95.8224, 35.4637 ], [ -95.8224, 35.5517 ], [ -95.713, 35.5517 ], [ -95.7131, 35.7258 ], [ -95.7663, 35.7257 ], [ -95.7661, 35.8563 ], [ -95.8195, 35.8562 ], [ -96.0331, 35.8568 ], [ -96.1924, 35.857 ], [ -96.1926, 35.6391 ] ] ] } },
{ "type": "Feature", "properties": { "COUNTY": "Osage" }, "geometry": { "type": "Polygon", "coordinates": [ [ [ -96.7498, 36.999 ], [ -96.7522, 36.9412 ], [ -96.7524, 36.7821 ], [ -96.7887, 36.782 ], [ -96.7887, 36.7676 ], [ -96.8226, 36.7676 ], [ -96.8341, 36.7434 ], [ -96.8886, 36.7518 ], [ -96.9209, 36.7171 ], [ -96.9319, 36.6861 ], [ -96.9957, 36.6882 ], [ -97.0307, 36.7016 ], [ -97.0641, 36.6842 ], [ -97.0447, 36.6027 ], [ -97.0576, 36.5939 ], [ -97.0043, 36.5826 ], [ -96.9128, 36.5989 ], [ -96.8883, 36.5756 ], [ -96.8991, 36.5532 ], [ -96.9247, 36.5526 ], [ -96.9585, 36.5343 ], [ -96.9962, 36.529 ], [ -97.0098, 36.5069 ], [ -97.007, 36.4892 ], [ -96.982, 36.4661 ], [ -96.9402, 36.4555 ], [ -96.9125, 36.4678 ], [ -96.8753, 36.4709 ], [ -96.8518, 36.4911 ], [ -96.8206, 36.5393 ], [ -96.7695, 36.5654 ], [ -96.7372, 36.5501 ], [ -96.7249, 36.5032 ], [ -96.7062, 36.4776 ], [ -96.7181, 36.454 ], [ -96.7108, 36.4377 ], [ -96.6745, 36.4204 ], [ -96.6357, 36.4259 ], [ -96.6064, 36.4033 ], [ -96.6019, 36.3823 ], [ -96.5757, 36.3743 ], [ -96.5407, 36.4004 ], [ -96.5187, 36.3776 ], [ -96.5342, 36.356 ], [ -96.559, 36.3485 ], [ -96.5735, 36.3157 ], [ -96.547, 36.2981 ], [ -96.5152, 36.2983 ], [ -96.4841, 36.3311 ], [ -96.4568, 36.3322 ], [ -96.4338, 36.2859 ], [ -96.3868, 36.2671 ], [ -96.3515, 36.2375 ], [ -96.3267, 36.2266 ], [ -96.2566, 36.2257 ], [ -96.2428, 36.2047 ], [ -96.2692, 36.1737 ], [ -96.2683, 36.162 ], [ -96.0012, 36.1613 ], [ -96.0012, 36.4237 ], [ -96.0006, 36.6762 ], [ -96.0008, 36.9989 ], [ -96.5003, 36.9986 ], [ -96.7498, 36.999 ] ] ] } },
{ "type": "Feature", "properties": { "COUNTY": "Ottawa" }, "geometry": { "type": "Polygon", "coordinates": [ [ [ -95.0076, 36.9995 ], [ -95.034, 36.9943 ], [ -95.0281, 36.9665 ], [ -94.9992, 36.9431 ], [ -94.9994, 36.6706 ], [ -94.7825, 36.6706 ], [ -94.7792, 36.6678 ], [ -94.618, 36.6679 ], [ -94.618, 36.9989 ], [ -95.0076, 36.9995 ] ] ] } },
{ "type": "Feature", "properties": { "COUNTY": "Pawnee" }, "geometry": { "type": "Polygon", "coordinates": [ [ [ -97.0098, 36.5069 ], [ -97.0321, 36.507 ], [ -97.0321, 36.3334 ], [ -96.9249, 36.3333 ], [ -96.9251, 36.2465 ], [ -96.819, 36.2465 ], [ -96.819, 36.1589 ], [ -96.6221, 36.1599 ], [ -96.6209, 36.1634 ], [ -96.2979, 36.1623 ], [ -96.2683, 36.162 ], [ -96.2692, 36.1737 ], [ -96.2428, 36.2047 ], [ -96.2566, 36.2257 ], [ -96.3267, 36.2266 ], [ -96.3515, 36.2375 ], [ -96.3868, 36.2671 ], [ -96.4338, 36.2859 ], [ -96.4568, 36.3322 ], [ -96.4841, 36.3311 ], [ -96.5152, 36.2983 ], [ -96.547, 36.2981 ], [ -96.5735, 36.3157 ], [ -96.559, 36.3485 ], [ -96.5342, 36.356 ], [ -96.5187, 36.3776 ], [ -96.5407, 36.4004 ], [ -96.5757, 36.3743 ], [ -96.6019, 36.3823 ], [ -96.6064, 36.4033 ], [ -96.6357, 36.4259 ], [ -96.6745, 36.4204 ], [ -96.7108, 36.4377 ], [ -96.7181, 36.454 ], [ -96.7062, 36.4776 ], [ -96.7249, 36.5032 ], [ -96.7372, 36.5501 ], [ -96.7695, 36.5654 ], [ -96.8206, 36.5393 ], [ -96.8518, 36.4911 ], [ -96.8753, 36.4709 ], [ -96.9125, 36.4678 ], [ -96.9402, 36.4555 ], [ -96.982, 36.4661 ], [ -97.007, 36.4892 ], [ -97.0098, 36.5069 ] ] ] } },
{ "type": "Feature", "properties": { "COUNTY": "Payne" }, "geometry": { "type": "Polygon", "coordinates": [ [ [ -97.3541, 36.1591 ], [ -97.3539, 35.9849 ], [ -97.3236, 36.0109 ], [ -97.2946, 36.0056 ], [ -97.2776, 35.9738 ], [ -97.2212, 35.9646 ], [ -97.2036, 35.9448 ], [ -97.1406, 35.942 ], [ -96.9095, 35.9415 ], [ -96.6196, 35.9416 ], [ -96.6225, 36.061 ], [ -96.6221, 36.1599 ], [ -96.819, 36.1589 ], [ -96.819, 36.2465 ], [ -96.9251, 36.2465 ], [ -97.141, 36.2464 ], [ -97.1407, 36.1592 ], [ -97.3541, 36.1591 ] ] ] } },
{ "type": "Feature", "properties": { "COUNTY": "Pittsburg" }, "geometry": { "type": "Polygon", "coordinates": [ [ [ -96.092, 34.6806 ], [ -95.8822, 34.6805 ], [ -95.882, 34.5935 ], [ -95.6718, 34.5937 ], [ -95.5145, 34.5942 ], [ -95.5145, 34.6807 ], [ -95.5141, 34.8549 ], [ -95.5075, 34.8549 ], [ -95.5077, 35.0293 ], [ -95.3494, 35.0293 ], [ -95.3494, 35.0585 ], [ -95.3495, 35.16 ], [ -95.455, 35.1604 ], [ -95.451, 35.2028 ], [ -95.4513, 35.296 ], [ -95.5004, 35.3009 ], [ -95.5134, 35.2687 ], [ -95.5727, 35.2443 ], [ -95.5994, 35.2216 ], [ -95.6157, 35.2497 ], [ -95.681, 35.221 ], [ -95.68, 35.2035 ], [ -95.7162, 35.1893 ], [ -95.7439, 35.1919 ], [ -95.7685, 35.179 ], [ -95.7933, 35.1973 ], [ -95.8389, 35.1843 ], [ -95.8707, 35.186 ], [ -95.9059, 35.144 ], [ -95.9831, 35.1517 ], [ -96.0136, 35.1418 ], [ -96.0627, 35.0881 ], [ -96.0692, 35.0566 ], [ -96.0888, 35.0499 ], [ -96.089, 34.8547 ], [ -96.092, 34.7675 ], [ -96.092, 34.6806 ] ] ] } },
{ "type": "Feature", "properties": { "COUNTY": "Pontotoc" }, "geometry": { "type": "Polygon", "coordinates": [ [ [ -96.9324, 34.8545 ], [ -96.9325, 34.6368 ], [ -96.9324, 34.5933 ], [ -96.8271, 34.5932 ], [ -96.8273, 34.5061 ], [ -96.5138, 34.5054 ], [ -96.5122, 34.6801 ], [ -96.4064, 34.68 ], [ -96.4065, 34.7673 ], [ -96.4138, 34.9156 ], [ -96.4356, 34.9023 ], [ -96.4604, 34.9165 ], [ -96.4908, 34.9106 ], [ -96.5126, 34.8755 ], [ -96.5286, 34.8696 ], [ -96.5771, 34.9166 ], [ -96.5958, 34.906 ], [ -96.646, 34.9014 ], [ -96.6677, 34.9296 ], [ -96.692, 34.9333 ], [ -96.7115, 34.9163 ], [ -96.6892, 34.8956 ], [ -96.6942, 34.8685 ], [ -96.7229, 34.8568 ], [ -96.7421, 34.8694 ], [ -96.7555, 34.8998 ], [ -96.7757, 34.9 ], [ -96.7986, 34.9059 ], [ -96.7982, 34.93 ], [ -96.8215, 34.9461 ], [ -96.853, 34.9288 ], [ -96.8854, 34.9262 ], [ -96.9106, 34.9587 ], [ -96.9306, 34.9644 ], [ -96.9324, 34.8545 ] ] ] } },
{ "type": "Feature", "properties": { "COUNTY": "Pottawatomie" }, "geometry": { "type": "Polygon", "coordinates": [ [ [ -97.1423, 34.9282 ], [ -97.1168, 34.9352 ], [ -97.0797, 34.9289 ], [ -97.0159, 34.9074 ], [ -96.9673, 34.9347 ], [ -96.9306, 34.9644 ], [ -96.9106, 34.9587 ], [ -96.8854, 34.9262 ], [ -96.853, 34.9288 ], [ -96.8215, 34.9461 ], [ -96.7982, 34.93 ], [ -96.7986, 34.9059 ], [ -96.7757, 34.9 ], [ -96.7754, 35.0432 ], [ -96.7772, 35.2899 ], [ -96.7767, 35.4054 ], [ -96.7443, 35.4066 ], [ -96.7248, 35.425 ], [ -96.6886, 35.4036 ], [ -96.6524, 35.3916 ], [ -96.6237, 35.4007 ], [ -96.6247, 35.4627 ], [ -97.1415, 35.464 ], [ -97.1421, 35.3769 ], [ -97.1417, 35.203 ], [ -97.1423, 34.9282 ] ] ] } },
{ "type": "Feature", "properties": { "COUNTY": "Pushmataha" }, "geometry": { "type": "Polygon", "coordinates": [ [ [ -95.6718, 34.5937 ], [ -95.6718, 34.5068 ], [ -95.7791, 34.5066 ], [ -95.7794, 34.1567 ], [ -95.3823, 34.1569 ], [ -95.1565, 34.157 ], [ -95.1513, 34.2437 ], [ -95.0466, 34.2438 ], [ -95.0468, 34.5073 ], [ -94.9376, 34.5073 ], [ -94.9376, 34.6808 ], [ -95.0596, 34.6807 ], [ -95.5145, 34.6807 ], [ -95.5145, 34.5942 ], [ -95.6718, 34.5937 ] ] ] } },
{ "type": "Feature", "properties": { "COUNTY": "Roger Mills" }, "geometry": { "type": "Polygon", "coordinates": [ [ [ -100.0004, 35.8812 ], [ -100.0004, 35.4224 ], [ -99.5758, 35.4217 ], [ -99.5757, 35.5089 ], [ -99.3641, 35.5088 ], [ -99.3641, 35.5517 ], [ -99.377, 35.5517 ], [ -99.3758, 35.8122 ], [ -99.3812, 35.8989 ], [ -99.381, 36.0129 ], [ -99.4519, 36.0055 ], [ -99.4958, 35.9787 ], [ -99.5153, 35.9258 ], [ -99.5496, 35.9002 ], [ -99.5585, 35.866 ], [ -99.6018, 35.8559 ], [ -99.6177, 35.8429 ], [ -99.7171, 35.8598 ], [ -99.7464, 35.882 ], [ -99.7611, 35.8807 ], [ -99.8014, 35.9106 ], [ -99.8102, 35.9289 ], [ -99.8023, 35.9716 ], [ -99.8094, 36.0 ], [ -99.838, 36.0068 ], [ -99.8883, 35.9879 ], [ -99.9125, 35.955 ], [ -99.9056, 35.9367 ], [ -99.9252, 35.9137 ], [ -99.9721, 35.8888 ], [ -100.0004, 35.8812 ] ] ] } },
{ "type": "Feature", "properties": { "COUNTY": "Rogers" }, "geometry": { "type": "Polygon", "coordinates": [ [ [ -95.8123, 36.4236 ], [ -95.7944, 36.4236 ], [ -95.7943, 36.3945 ], [ -95.8123, 36.3946 ], [ -95.8121, 36.2495 ], [ -95.8154, 36.1626 ], [ -95.7617, 36.1628 ], [ -95.6185, 36.1625 ], [ -95.6047, 36.1335 ], [ -95.5678, 36.1294 ], [ -95.5683, 36.1074 ], [ -95.5526, 36.0915 ], [ -95.5715, 36.0753 ], [ -95.44, 36.0753 ], [ -95.4399, 36.2062 ], [ -95.4355, 36.2493 ], [ -95.4356, 36.5102 ], [ -95.3282, 36.5102 ], [ -95.3284, 36.5976 ], [ -95.4316, 36.5975 ], [ -95.8095, 36.5975 ], [ -95.8123, 36.5975 ], [ -95.8123, 36.4236 ] ] ] } },
{ "type": "Feature", "properties": { "COUNTY": "Seminole" }, "geometry": { "type": "Polygon", "coordinates": [ [ [ -96.6237, 35.4007 ], [ -96.6524, 35.3916 ], [ -96.6886, 35.4036 ], [ -96.7248, 35.425 ], [ -96.7443, 35.4066 ], [ -96.7767, 35.4054 ], [ -96.7772, 35.2899 ], [ -96.7754, 35.0432 ], [ -96.7757, 34.9 ], [ -96.7555, 34.8998 ], [ -96.7421, 34.8694 ], [ -96.7229, 34.8568 ], [ -96.6942, 34.8685 ], [ -96.6892, 34.8956 ], [ -96.7115, 34.9163 ], [ -96.692, 34.9333 ], [ -96.6677, 34.9296 ], [ -96.646, 34.9014 ], [ -96.5958, 34.906 ], [ -96.5771, 34.9166 ], [ -96.5286, 34.8696 ], [ -96.5126, 34.8755 ], [ -96.4908, 34.9106 ], [ -96.4904, 35.1159 ], [ -96.4413, 35.1158 ], [ -96.4414, 35.2901 ], [ -96.4413, 35.4677 ], [ -96.4715, 35.463 ], [ -96.4966, 35.4289 ], [ -96.5186, 35.4312 ], [ -96.5403, 35.4534 ], [ -96.5557, 35.4346 ], [ -96.5352, 35.3914 ], [ -96.5767, 35.4019 ], [ -96.6237, 35.4007 ] ] ] } },
{ "type": "Feature", "properties": { "COUNTY": "Sequoyah" }, "geometry": { "type": "Polygon", "coordinates": [ [ [ -95.1272, 35.6388 ], [ -95.1273, 35.5518 ], [ -95.1323, 35.526 ], [ -95.0961, 35.4857 ], [ -95.0883, 35.4648 ], [ -95.0499, 35.4589 ], [ -95.0249, 35.4531 ], [ -95.0199, 35.425 ], [ -94.9868, 35.4084 ], [ -94.9489, 35.4073 ], [ -94.9257, 35.3928 ], [ -94.9018, 35.3979 ], [ -94.8947, 35.3731 ], [ -94.9119, 35.3466 ], [ -94.8659, 35.3566 ], [ -94.8421, 35.3711 ], [ -94.8136, 35.3233 ], [ -94.7944, 35.3271 ], [ -94.7784, 35.3509 ], [ -94.73, 35.3519 ], [ -94.6849, 35.3273 ], [ -94.6688, 35.295 ], [ -94.648, 35.2912 ], [ -94.6159, 35.3041 ], [ -94.5948, 35.328 ], [ -94.5691, 35.3256 ], [ -94.5546, 35.3102 ], [ -94.4946, 35.3011 ], [ -94.4948, 35.3298 ], [ -94.4805, 35.3523 ], [ -94.4836, 35.3694 ], [ -94.4356, 35.3861 ], [ -94.4307, 35.3925 ], [ -94.4497, 35.4967 ], [ -94.4727, 35.6386 ], [ -94.8078, 35.6385 ], [ -95.1272, 35.6388 ] ] ] } },
{ "type": "Feature", "properties": { "COUNTY": "Stephens" }, "geometry": { "type": "Polygon", "coordinates": [ [ [ -98.1422, 34.507 ], [ -98.1392, 34.507 ], [ -98.1392, 34.2898 ], [ -97.999, 34.2891 ], [ -97.5625, 34.2892 ], [ -97.5623, 34.507 ], [ -97.563, 34.6812 ], [ -97.6685, 34.6813 ], [ -98.0891, 34.6812 ], [ -98.1418, 34.6812 ], [ -98.1422, 34.507 ] ] ] } },
{ "type": "Feature", "properties": { "COUNTY": "Texas" }, "geometry": { "type": "Polygon", "coordinates": [ [ [ -102.0323, 36.5006 ], [ -101.8266, 36.4996 ], [ -101.3668, 36.4994 ], [ -100.9541, 36.4996 ], [ -100.9539, 36.8482 ], [ -100.9455, 36.8487 ], [ -100.9455, 36.9982 ], [ -101.4853, 36.9956 ], [ -102.0282, 36.9931 ], [ -102.0283, 36.8494 ], [ -102.0321, 36.8492 ], [ -102.0323, 36.5006 ] ] ] } },
{ "type": "Feature", "properties": { "COUNTY": "Tillman" }, "geometry": { "type": "Polygon", "coordinates": [ [ [ -99.1031, 34.6379 ], [ -99.0885, 34.6152 ], [ -99.0997, 34.5941 ], [ -99.1633, 34.588 ], [ -99.1968, 34.5424 ], [ -99.2212, 34.4642 ], [ -99.2381, 34.425 ], [ -99.2289, 34.3877 ], [ -99.1928, 34.3549 ], [ -99.2069, 34.3383 ], [ -99.2135, 34.3107 ], [ -99.1963, 34.2815 ], [ -99.1971, 34.2443 ], [ -99.1895, 34.2143 ], [ -99.1192, 34.2017 ], [ -99.0795, 34.2115 ], [ -99.0435, 34.1982 ], [ -99.0131, 34.2032 ], [ -99.0008, 34.2176 ], [ -98.9741, 34.2036 ], [ -98.9504, 34.2117 ], [ -98.9207, 34.1834 ], [ -98.8715, 34.165 ], [ -98.8044, 34.1539 ], [ -98.7656, 34.1364 ], [ -98.6906, 34.133 ], [ -98.6481, 34.1644 ], [ -98.61, 34.1572 ], [ -98.6097, 34.3337 ], [ -98.662, 34.3334 ], [ -98.662, 34.4059 ], [ -98.662, 34.5075 ], [ -98.8261, 34.5074 ], [ -98.826, 34.5944 ], [ -99.0011, 34.5944 ], [ -99.001, 34.6379 ], [ -99.1031, 34.6379 ] ] ] } },
{ "type": "Feature", "properties": { "COUNTY": "Tulsa" }, "geometry": { "type": "Polygon", "coordinates": [ [ [ -96.2979, 36.1623 ], [ -96.2979, 36.0758 ], [ -96.0296, 36.0754 ], [ -96.0296, 35.9011 ], [ -96.0331, 35.8568 ], [ -95.8195, 35.8562 ], [ -95.8195, 35.9011 ], [ -95.762, 35.9012 ], [ -95.7617, 36.1628 ], [ -95.8154, 36.1626 ], [ -95.8121, 36.2495 ], [ -95.8123, 36.3946 ], [ -95.7943, 36.3945 ], [ -95.7944, 36.4236 ], [ -95.8123, 36.4236 ], [ -96.0012, 36.4237 ], [ -96.0012, 36.1613 ], [ -96.2683, 36.162 ], [ -96.2979, 36.1623 ] ] ] } },
{ "type": "Feature", "properties": { "COUNTY": "Wagoner" }, "geometry": { "type": "Polygon", "coordinates": [ [ [ -95.7617, 36.1628 ], [ -95.762, 35.9012 ], [ -95.8195, 35.9011 ], [ -95.8195, 35.8562 ], [ -95.7661, 35.8563 ], [ -95.6504, 35.8566 ], [ -95.6391, 35.8329 ], [ -95.6398, 35.791 ], [ -95.5846, 35.7656 ], [ -95.5631, 35.7879 ], [ -95.5207, 35.7922 ], [ -95.4775, 35.8042 ], [ -95.4202, 35.7996 ], [ -95.3604, 35.8224 ], [ -95.3444, 35.8136 ], [ -95.2657, 35.8133 ], [ -95.2315, 35.8512 ], [ -95.2325, 35.8727 ], [ -95.2577, 35.8773 ], [ -95.283, 35.9082 ], [ -95.2693, 35.9294 ], [ -95.2787, 35.9641 ], [ -95.2253, 36.0092 ], [ -95.2253, 36.0398 ], [ -95.2081, 36.0405 ], [ -95.2079, 36.0748 ], [ -95.44, 36.0753 ], [ -95.5715, 36.0753 ], [ -95.5526, 36.0915 ], [ -95.5683, 36.1074 ], [ -95.5678, 36.1294 ], [ -95.6047, 36.1335 ], [ -95.6185, 36.1625 ], [ -95.7617, 36.1628 ] ] ] } },
{ "type": "Feature", "properties": { "COUNTY": "Washington" }, "geometry": { "type": "Polygon", "coordinates": [ [ [ -96.0012, 36.4237 ], [ -95.8123, 36.4236 ], [ -95.8123, 36.5975 ], [ -95.8095, 36.5975 ], [ -95.8098, 36.9419 ], [ -95.7867, 36.9419 ], [ -95.7868, 36.9993 ], [ -96.0008, 36.9989 ], [ -96.0006, 36.6762 ], [ -96.0012, 36.4237 ] ] ] } },
{ "type": "Feature", "properties": { "COUNTY": "Washita" }, "geometry": { "type": "Polygon", "coordinates": [ [ [ -99.3642, 35.4653 ], [ -99.3646, 35.2045 ], [ -99.3602, 35.1167 ], [ -98.9444, 35.1164 ], [ -98.7492, 35.1163 ], [ -98.6781, 35.1079 ], [ -98.6722, 35.119 ], [ -98.63, 35.1164 ], [ -98.6207, 35.0978 ], [ -98.618, 35.2041 ], [ -98.6236, 35.2041 ], [ -98.6233, 35.4642 ], [ -99.0993, 35.4652 ], [ -99.3642, 35.4653 ] ] ] } },
{ "type": "Feature", "properties": { "COUNTY": "Woods" }, "geometry": { "type": "Polygon", "coordinates": [ [ [ -99.4562, 36.9995 ], [ -99.4434, 36.9955 ], [ -99.4205, 36.9411 ], [ -99.3981, 36.9215 ], [ -99.3742, 36.8796 ], [ -99.3221, 36.8572 ], [ -99.2952, 36.8196 ], [ -99.2943, 36.8059 ], [ -99.2504, 36.785 ], [ -99.1653, 36.7906 ], [ -99.1398, 36.783 ], [ -99.1266, 36.7626 ], [ -99.0974, 36.7421 ], [ -99.0845, 36.7216 ], [ -99.0615, 36.7154 ], [ -99.0484, 36.6868 ], [ -99.0224, 36.6589 ], [ -99.0225, 36.6424 ], [ -98.96, 36.599 ], [ -98.9603, 36.5069 ], [ -98.8437, 36.5063 ], [ -98.8078, 36.4607 ], [ -98.7777, 36.4484 ], [ -98.7268, 36.4453 ], [ -98.6995, 36.416 ], [ -98.6254, 36.3926 ], [ -98.5935, 36.392 ], [ -98.5525, 36.4023 ], [ -98.5337, 36.3979 ], [ -98.5336, 36.4632 ], [ -98.5334, 36.5942 ], [ -98.5405, 36.5942 ], [ -98.5402, 36.9422 ], [ -98.5447, 36.999 ], [ -99.0293, 36.9996 ], [ -99.4562, 36.9995 ] ] ] } },
{ "type": "Feature", "properties": { "COUNTY": "Woodward" }, "geometry": { "type": "Polygon", "coordinates": [ [ [ -99.6056, 36.5928 ], [ -99.6051, 36.2467 ], [ -99.5959, 36.2468 ], [ -99.5961, 36.1641 ], [ -99.3821, 36.1643 ], [ -98.9558, 36.1616 ], [ -98.9606, 36.2467 ], [ -98.9603, 36.5069 ], [ -98.96, 36.599 ], [ -99.0225, 36.6424 ], [ -99.0224, 36.6589 ], [ -99.0484, 36.6868 ], [ -99.0615, 36.7154 ], [ -99.0845, 36.7216 ], [ -99.0974, 36.7421 ], [ -99.1266, 36.7626 ], [ -99.1398, 36.783 ], [ -99.1653, 36.7906 ], [ -99.2504, 36.785 ], [ -99.2943, 36.8059 ], [ -99.2952, 36.8196 ], [ -99.2953, 36.5964 ], [ -99.2999, 36.595 ], [ -99.6056, 36.5928 ] ] ] } }
]
}
