{
"type": "FeatureCollection",
"name": "regions",
"crs": { "type": "name", "properties": { "name": "urn:ogc:def:crs:OGC:1.3:CRS84" } },
"features": [
{ "type": "Feature", "properties": { "REGION": "North Central" }, "geometry": { "type": "Polygon", "coordinates": [ [ [ -100.9455, 36.9982 ], [ -101.4853, 36.9956 ], [ -102.0282, 36.9931 ], [ -102.3554, 36.9946 ], [ -102.6981, 36.9951 ], [ -102.8125, 36.9997 ], [ -102.987, 36.9985 ], [ -103.0022, 37.0001 ], [ -103.0025, 36.6752 ], [ -103.0024, 36.5004 ], [ -102.5707, 36.5004 ], [ -102.1625, 36.5003 ], [ -102.0323, 36.5006 ], [ -101.8266, 36.4996 ], [ -101.3668, 36.4994 ], [ -100.9541, 36.4996 ], [ -100.6483, 36.4995 ], [ -100.3345, 36.4994 ], [ -100.0038, 36.4997 ], [ -100.0004, 36.4997 ], [ -100.0004, 36.2735 ], [ -100.0004, 35.8812 ], [ -99.9721, 35.8888 ], [ -99.9252, 35.9137 ], [ -99.9056, 35.9367 ], [ -99.9125, 35.955 ], [ -99.8883, 35.9879 ], [ -99.838, 36.0068 ], [ -99.8094, 36.0 ], [ -99.8023, 35.9716 ], [ -99.8102, 35.9289 ], [ -99.8014, 35.9106 ], [ -99.7611, 35.8807 ], [ -99.7464, 35.882 ], [ -99.7171, 35.8598 ], [ -99.6177, 35.8429 ], [ -99.6018, 35.8559 ], [ -99.5585, 35.866 ], [ -99.5496, 35.9002 ], [ -99.5153, 35.9258 ], [ -99.4958, 35.9787 ], [ -99.4519, 36.0055 ], [ -99.381, 36.0129 ], [ -99.3812, 35.8989 ], [ -99.3758, 35.8122 ], [ -99.0113, 35.8123 ], [ -98.632, 35.8124 ], [ -98.6322, 35.5515 ], [ -98.6232, 35.5515 ], [ -98.3132, 35.5515 ], [ -98.3131, 35.7247 ], [ -98.2071, 35.7252 ], [ -97.674, 35.726 ], [ -97.6757, 35.9566 ], [ -97.6756, 36.1647 ], [ -97.4608, 36.1645 ], [ -97.3539, 36.1643 ], [ -97.3541, 36.1591 ], [ -97.3539, 35.9849 ], [ -97.3236, 36.0109 ], [ -97.2946, 36.0056 ], [ -97.2776, 35.9738 ], [ -97.2212, 35.9646 ], [ -97.2036, 35.9448 ], [ -97.1406, 35.942 ], [ -96.9095, 35.9415 ], [ -96.6196, 35.9416 ], [ -96.6225, 36.061 ], [ -96.6221, 36.1599 ], [ -96.6209, 36.1634 ], [ -96.2979, 36.1623 ], [ -96.2683, 36.162 ], [ -96.2692, 36.1737 ], [ -96.2428, 36.2047 ], [ -96.2566, 36.2257 ], [ -96.3267, 36.2266 ], [ -96.3515, 36.2375 ], [ -96.3868, 36.2671 ], [ -96.4338, 36.2859 ], [ -96.4568, 36.3322 ], [ -96.4841, 36.3311 ], [ -96.5152, 36.2983 ], [ -96.547, 36.2981 ], [ -96.5735, 36.3157 ], [ -96.559, 36.3485 ], [ -96.5342, 36.356 ], [ -96.5187, 36.3776 ], [ -96.5407, 36.4004 ], [ -96.5757, 36.3743 ], [ -96.6019, 36.3823 ], [ -96.6064, 36.4033 ], [ -96.6357, 36.4259 ], [ -96.6745, 36.4204 ], [ -96.7108, 36.4377 ], [ -96.7181, 36.454 ], [ -96.7062, 36.4776 ], [ -96.7249, 36.5032 ], [ -96.7372, 36.5501 ], [ -96.7695, 36.5654 ], [ -96.8206, 36.5393 ], [ -96.8518, 36.4911 ], [ -96.8753, 36.4709 ], [ -96.9125, 36.4678 ], [ -96.9402, 36.4555 ], [ -96.982, 36.4661 ], [ -97.007, 36.4892 ], [ -97.0098, 36.5069 ], [ -96.9962, 36.529 ], [ -96.9585, 36.5343 ], [ -96.9247, 36.5526 ], [ -96.8991, 36.5532 ], [ -96.8883, 36.5756 ], [ -96.9128, 36.5989 ], [ -97.0043, 36.5826 ], [ -97.0576, 36.5939 ], [ -97.0447, 36.6027 ], [ -97.0641, 36.6842 ], [ -97.0307, 36.7016 ], [ -96.9957, 36.6882 ], [ -96.9319, 36.6861 ], [ -96.9209, 36.7171 ], [ -96.8886, 36.7518 ], [ -96.8341, 36.7434 ], [ -96.8226, 36.7676 ], [ -96.7887, 36.7676 ], [ -96.7887, 36.782 ], [ -96.7524, 36.7821 ], [ -96.7522, 36.9412 ], [ -96.7498, 36.999 ], [ -97.0301, 36.9989 ], [ -97.4624, 36.9987 ], [ -97.8765, 36.9986 ], [ -98.112, 36.9981 ], [ -98.3541, 36.998 ], [ -98.5447, 36.999 ], [ -99.0293, 36.9996 ], [ -99.4562, 36.9995 ], [ -99.6487, 36.9996 ], [ -100.0026, 37.0017 ], [ -100.1157, 37.0022 ], [ -100.5516, 37.0006 ], [ -100.9455, 36.9982 ] ] ] } },
{ "type": "Feature", "properties": { "REGION": "Oklahoma City" }, "geometry": { "type": "Polygon", "coordinates": [ [ [ -97.674, 35.726 ], [ -98.2071, 35.7252 ], [ -98.3131, 35.7247 ], [ -98.3132, 35.5515 ], [ -98.3065, 35.5362 ], [ -98.3063, 35.3772 ], [ -98.096, 35.3777 ], [ -98.0929, 35.0869 ], [ -98.0931, 34.855 ], [ -98.089, 34.8407 ], [ -98.0891, 34.6812 ], [ -97.6685, 34.6813 ], [ -97.6681, 34.8552 ], [ -97.3002, 34.8552 ], [ -96.9324, 34.8545 ], [ -96.9306, 34.9644 ], [ -96.9106, 34.9587 ], [ -96.8854, 34.9262 ], [ -96.853, 34.9288 ], [ -96.8215, 34.9461 ], [ -96.7982, 34.93 ], [ -96.7986, 34.9059 ], [ -96.7757, 34.9 ], [ -96.7754, 35.0432 ], [ -96.7772, 35.2899 ], [ -96.7767, 35.4054 ], [ -96.7443, 35.4066 ], [ -96.7248, 35.425 ], [ -96.6886, 35.4036 ], [ -96.6524, 35.3916 ], [ -96.6237, 35.4007 ], [ -96.6247, 35.4627 ], [ -96.6208, 35.639 ], [ -96.6196, 35.9416 ], [ -96.9095, 35.9415 ], [ -97.1406, 35.942 ], [ -97.2036, 35.9448 ], [ -97.2212, 35.9646 ], [ -97.2776, 35.9738 ], [ -97.2946, 36.0056 ], [ -97.3236, 36.0109 ], [ -97.3539, 35.9849 ], [ -97.3541, 36.1591 ], [ -97.3539, 36.1643 ], [ -97.4608, 36.1645 ], [ -97.6756, 36.1647 ], [ -97.6757, 35.9566 ], [ -97.674, 35.726 ] ] ] } },
{ "type": "Feature", "properties": { "REGION": "South East" }, "geometry": { "type": "Polygon", "coordinates": [ [ [ -96.9324, 34.8545 ], [ -97.3002, 34.8552 ], [ -97.6681, 34.8552 ], [ -97.6685, 34.6813 ], [ -97.563, 34.6812 ], [ -97.5623, 34.507 ], [ -97.5625, 34.2892 ], [ -97.5608, 34.0711 ], [ -97.5609, 33.8996 ], [ -97.501, 33.9196 ], [ -97.4604, 33.904 ], [ -97.4515, 33.8709 ], [ -97.4629, 33.8418 ], [ -97.4265, 33.8194 ], [ -97.3729, 33.8194 ], [ -97.3392, 33.8621 ], [ -97.3144, 33.867 ], [ -97.3056, 33.8864 ], [ -97.2703, 33.8582 ], [ -97.2492, 33.8751 ], [ -97.2462, 33.9003 ], [ -97.2109, 33.9161 ], [ -97.1796, 33.8922 ], [ -97.1666, 33.8473 ], [ -97.2035, 33.8218 ], [ -97.2057, 33.8029 ], [ -97.1722, 33.7375 ], [ -97.1261, 33.7169 ], [ -97.0971, 33.7278 ], [ -97.0852, 33.7655 ], [ -97.0948, 33.7985 ], [ -97.0786, 33.8128 ], [ -97.0482, 33.8175 ], [ -97.0461, 33.8396 ], [ -97.0214, 33.8464 ], [ -96.9838, 33.8909 ], [ -96.995, 33.932 ], [ -96.9348, 33.9544 ], [ -96.9163, 33.9578 ], [ -96.8994, 33.9337 ], [ -96.8957, 33.8964 ], [ -96.8664, 33.8531 ], [ -96.8416, 33.8529 ], [ -96.8322, 33.8748 ], [ -96.7943, 33.8689 ], [ -96.7796, 33.8579 ], [ -96.7616, 33.8244 ], [ -96.7124, 33.8316 ], [ -96.6907, 33.85 ], [ -96.6735, 33.9123 ], [ -96.6599, 33.9167 ], [ -96.6283, 33.8945 ], [ -96.5885, 33.8949 ], [ -96.5974, 33.8751 ], [ -96.629, 33.8524 ], [ -96.6231, 33.8415 ], [ -96.5729, 33.8191 ], [ -96.5267, 33.8209 ], [ -96.5159, 33.7878 ], [ -96.5003, 33.7726 ], [ -96.4226, 33.776 ], [ -96.4035, 33.7463 ], [ -96.3696, 33.7168 ], [ -96.3622, 33.6918 ], [ -96.338, 33.6887 ], [ -96.31, 33.7105 ], [ -96.2965, 33.7658 ], [ -96.2636, 33.7675 ], [ -96.229, 33.748 ], [ -96.1781, 33.7605 ], [ -96.1628, 33.7888 ], [ -96.1648, 33.8178 ], [ -96.1481, 33.8378 ], [ -96.1001, 33.848 ], [ -96.0488, 33.8365 ], [ -95.9984, 33.8511 ], [ -95.9413, 33.8616 ], [ -95.9258, 33.885 ], [ -95.8452, 33.8391 ], [ -95.8008, 33.8612 ], [ -95.7706, 33.8453 ], [ -95.7614, 33.8732 ], [ -95.7564, 33.8926 ], [ -95.733, 33.8959 ], [ -95.7105, 33.885 ], [ -95.6848, 33.8902 ], [ -95.6601, 33.9101 ], [ -95.6268, 33.9079 ], [ -95.5967, 33.9421 ], [ -95.5545, 33.9281 ], [ -95.5509, 33.893 ], [ -95.5333, 33.8812 ], [ -95.4725, 33.8803 ], [ -95.4409, 33.8664 ], [ -95.3625, 33.8666 ], [ -95.3349, 33.8768 ], [ -95.2788, 33.8779 ], [ -95.2527, 33.8942 ], [ -95.2502, 33.9385 ], [ -95.2141, 33.9621 ], [ -95.1559, 33.9369 ], [ -95.1212, 33.9313 ], [ -95.1171, 33.9036 ], [ -95.0891, 33.9142 ], [ -95.0601, 33.9019 ], [ -95.0466, 33.8626 ], [ -94.9927, 33.8524 ], [ -94.9689, 33.8609 ], [ -94.9535, 33.8165 ], [ -94.8747, 33.7492 ], [ -94.8493, 33.7396 ], [ -94.7883, 33.7353 ], [ -94.7482, 33.7247 ], [ -94.7533, 33.7103 ], [ -94.7359, 33.6916 ], [ -94.6176, 33.6812 ], [ -94.603, 33.6631 ], [ -94.5803, 33.6788 ], [ -94.5706, 33.6522 ], [ -94.5514, 33.6285 ], [ -94.5046, 33.6207 ], [ -94.4859, 33.6379 ], [ -94.4788, 33.8815 ], [ -94.4687, 34.2492 ], [ -94.4612, 34.5075 ], [ -94.4575, 34.643 ], [ -94.4491, 34.8906 ], [ -94.4389, 35.1872 ], [ -94.4316, 35.3695 ], [ -94.4356, 35.3861 ], [ -94.4836, 35.3694 ], [ -94.4805, 35.3523 ], [ -94.4948, 35.3298 ], [ -94.4946, 35.3011 ], [ -94.5546, 35.3102 ], [ -94.5691, 35.3256 ], [ -94.5948, 35.328 ], [ -94.6159, 35.3041 ], [ -94.648, 35.2912 ], [ -94.6688, 35.295 ], [ -94.6849, 35.3273 ], [ -94.73, 35.3519 ], [ -94.7784, 35.3509 ], [ -94.7944, 35.3271 ], [ -94.8136, 35.3233 ], [ -94.8421, 35.3711 ], [ -94.8659, 35.3566 ], [ -94.9119, 35.3466 ], [ -94.8947, 35.3731 ], [ -94.9018, 35.3979 ], [ -94.9257, 35.3928 ], [ -94.9489, 35.4073 ], [ -94.9868, 35.4084 ], [ -95.0199, 35.425 ], [ -95.0249, 35.4531 ], [ -95.0499, 35.4589 ], [ -95.0688, 35.4489 ], [ -95.0833, 35.4115 ], [ -95.1233, 35.3723 ], [ -95.1577, 35.3715 ], [ -95.1826, 35.3369 ], [ -95.1705, 35.3101 ], [ -95.1992, 35.3036 ], [ -95.2313, 35.2659 ], [ -95.2622, 35.269 ], [ -95.2876, 35.2948 ], [ -95.3118, 35.3027 ], [ -95.3448, 35.293 ], [ -95.3448, 35.5517 ], [ -95.713, 35.5517 ], [ -95.8224, 35.5517 ], [ -95.8224, 35.4637 ], [ -95.8753, 35.4636 ], [ -95.8754, 35.3767 ], [ -95.9815, 35.3768 ], [ -95.9815, 35.2898 ], [ -96.4414, 35.2901 ], [ -96.4413, 35.4677 ], [ -96.4715, 35.463 ], [ -96.4966, 35.4289 ], [ -96.5186, 35.4312 ], [ -96.5403, 35.4534 ], [ -96.5557, 35.4346 ], [ -96.5352, 35.3914 ], [ -96.5767, 35.4019 ], [ -96.6237, 35.4007 ], [ -96.6524, 35.3916 ], [ -96.6886, 35.4036 ], [ -96.7248, 35.425 ], [ -96.7443, 35.4066 ], [ -96.7767, 35.4054 ], [ -96.7772, 35.2899 ], [ -96.7754, 35.0432 ], [ -96.7757, 34.9 ], [ -96.7986, 34.9059 ], [ -96.7982, 34.93 ], [ -96.8215, 34.9461 ], [ -96.853, 34.9288 ], [ -96.8854, 34.9262 ], [ -96.9106, 34.9587 ], [ -96.9306, 34.9644 ], [ -96.9324, 34.8545 ] ] ] } },
{ "type": "Feature", "properties": { "REGION": "South West" }, "geometry": { "type": "Polygon", "coordinates": [ [ [ -98.0931, 34.855 ], [ -98.0929, 35.0869 ], [ -98.096, 35.3777 ], [ -98.3063, 35.3772 ], [ -98.3065, 35.5362 ], [ -98.3132, 35.5515 ], [ -98.6232, 35.5515 ], [ -98.6322, 35.5515 ], [ -98.632, 35.8124 ], [ -99.0113, 35.8123 ], [ -99.3758, 35.8122 ], [ -99.3812, 35.8989 ], [ -99.381, 36.0129 ], [ -99.4519, 36.0055 ], [ -99.4958, 35.9787 ], [ -99.5153, 35.9258 ], [ -99.5496, 35.9002 ], [ -99.5585, 35.866 ], [ -99.6018, 35.8559 ], [ -99.6177, 35.8429 ], [ -99.7171, 35.8598 ], [ -99.7464, 35.882 ], [ -99.7611, 35.8807 ], [ -99.8014, 35.9106 ], [ -99.8102, 35.9289 ], [ -99.8023, 35.9716 ], [ -99.8094, 36.0 ], [ -99.838, 36.0068 ], [ -99.8883, 35.9879 ], [ -99.9125, 35.955 ], [ -99.9056, 35.9367 ], [ -99.9252, 35.9137 ], [ -99.9721, 35.8888 ], [ -100.0004, 35.8812 ], [ -100.0004, 35.4224 ], [ -100.0004, 35.0299 ], [ -100.0004, 34.5605 ], [ -99.9715, 34.5622 ], [ -99.9457, 34.5793 ], [ -99.8872, 34.5491 ], [ -99.8447, 34.5068 ], [ -99.8223, 34.4981 ], [ -99.8143, 34.4762 ], [ -99.7542, 34.4213 ], [ -99.7164, 34.4028 ], [ -99.695, 34.3783 ], [ -99.6627, 34.3737 ], [ -99.6481, 34.3823 ], [ -99.6, 34.3747 ], [ -99.5845, 34.3912 ], [ -99.5801, 34.4166 ], [ -99.4999, 34.4096 ], [ -99.43, 34.381 ], [ -99.3968, 34.3794 ], [ -99.3876, 34.412 ], [ -99.395, 34.4421 ], [ -99.381, 34.4569 ], [ -99.3287, 34.4224 ], [ -99.2947, 34.4154 ], [ -99.2376, 34.3667 ], [ -99.2343, 34.3535 ], [ -99.2069, 34.3383 ], [ -99.2135, 34.3107 ], [ -99.1963, 34.2815 ], [ -99.1971, 34.2443 ], [ -99.1895, 34.2143 ], [ -99.1192, 34.2017 ], [ -99.0795, 34.2115 ], [ -99.0435, 34.1982 ], [ -99.0131, 34.2032 ], [ -99.0008, 34.2176 ], [ -98.9741, 34.2036 ], [ -98.9504, 34.2117 ], [ -98.9207, 34.1834 ], [ -98.8715, 34.165 ], [ -98.8044, 34.1539 ], [ -98.7656, 34.1364 ], [ -98.6906, 34.133 ], [ -98.6481, 34.1644 ], [ -98.61, 34.1572 ], [ -98.5771, 34.149 ], [ -98.5606, 34.1236 ], [ -98.5363, 34.1073 ], [ -98.5041, 34.0723 ], [ -98.4863, 34.0626 ], [ -98.4437, 34.0821 ], [ -98.4116, 34.0881 ], [ -98.3984, 34.1046 ], [ -98.395, 34.1313 ], [ -98.364, 34.1571 ], [ -98.3255, 34.151 ], [ -98.3002, 34.1346 ], [ -98.2565, 34.1295 ], [ -98.231, 34.134 ], [ -98.2001, 34.1168 ], [ -98.1691, 34.1142 ], [ -98.139, 34.1418 ], [ -98.1095, 34.1541 ], [ -98.0907, 34.122 ], [ -98.1194, 34.0845 ], [ -98.1146, 34.0623 ], [ -98.0838, 34.0417 ], [ -98.0984, 34.0239 ], [ -98.0828, 34.0024 ], [ -98.0195, 33.9938 ], [ -97.9717, 34.0054 ], [ -97.9459, 33.9884 ], [ -97.9604, 33.9519 ], [ -97.9572, 33.9144 ], [ -97.9845, 33.9007 ], [ -97.9678, 33.8824 ], [ -97.9367, 33.8792 ], [ -97.8967, 33.858 ], [ -97.8658, 33.8494 ], [ -97.8343, 33.8577 ], [ -97.8026, 33.88 ], [ -97.802, 33.8942 ], [ -97.7323, 33.9367 ], [ -97.6979, 33.9773 ], [ -97.6718, 33.9914 ], [ -97.6338, 33.9813 ], [ -97.5888, 33.9519 ], [ -97.597, 33.9202 ], [ -97.5893, 33.9039 ], [ -97.5609, 33.8996 ], [ -97.5608, 34.0711 ], [ -97.5625, 34.2892 ], [ -97.5623, 34.507 ], [ -97.563, 34.6812 ], [ -97.6685, 34.6813 ], [ -98.0891, 34.6812 ], [ -98.089, 34.8407 ], [ -98.0931, 34.855 ] ] ] } },
{ "type": "Feature", "properties": { "REGION": "Tulsa" }, "geometry": { "type": "Polygon", "coordinates": [ [ [ -94.5628, 36.1619 ], [ -94.5862, 36.3 ], [ -94.6179, 36.4994 ], [ -94.618, 36.6679 ], [ -94.618, 36.9989 ], [ -95.0076, 36.9995 ], [ -95.4077, 36.9992 ], [ -95.7868, 36.9993 ], [ -96.0008, 36.9989 ], [ -96.5003, 36.9986 ], [ -96.7498, 36.999 ], [ -96.7522, 36.9412 ], [ -96.7524, 36.7821 ], [ -96.7887, 36.782 ], [ -96.7887, 36.7676 ], [ -96.8226, 36.7676 ], [ -96.8341, 36.7434 ], [ -96.8886, 36.7518 ], [ -96.9209, 36.7171 ], [ -96.9319, 36.6861 ], [ -96.9957, 36.6882 ], [ -97.0307, 36.7016 ], [ -97.0641, 36.6842 ], [ -97.0447, 36.6027 ], [ -97.0576, 36.5939 ], [ -97.0043, 36.5826 ], [ -96.9128, 36.5989 ], [ -96.8883, 36.5756 ], [ -96.8991, 36.5532 ], [ -96.9247, 36.5526 ], [ -96.9585, 36.5343 ], [ -96.9962, 36.529 ], [ -97.0098, 36.5069 ], [ -97.007, 36.4892 ], [ -96.982, 36.4661 ], [ -96.9402, 36.4555 ], [ -96.9125, 36.4678 ], [ -96.8753, 36.4709 ], [ -96.8518, 36.4911 ], [ -96.8206, 36.5393 ], [ -96.7695, 36.5654 ], [ -96.7372, 36.5501 ], [ -96.7249, 36.5032 ], [ -96.7062, 36.4776 ], [ -96.7181, 36.454 ], [ -96.7108, 36.4377 ], [ -96.6745, 36.4204 ], [ -96.6357, 36.4259 ], [ -96.6064, 36.4033 ], [ -96.6019, 36.3823 ], [ -96.5757, 36.3743 ], [ -96.5407, 36.4004 ], [ -96.5187, 36.3776 ], [ -96.5342, 36.356 ], [ -96.559, 36.3485 ], [ -96.5735, 36.3157 ], [ -96.547, 36.2981 ], [ -96.5152, 36.2983 ], [ -96.4841, 36.3311 ], [ -96.4568, 36.3322 ], [ -96.4338, 36.2859 ], [ -96.3868, 36.2671 ], [ -96.3515, 36.2375 ], [ -96.3267, 36.2266 ], [ -96.2566, 36.2257 ], [ -96.2428, 36.2047 ], [ -96.2692, 36.1737 ], [ -96.2683, 36.162 ], [ -96.2979, 36.1623 ], [ -96.6209, 36.1634 ], [ -96.6221, 36.1599 ], [ -96.6225, 36.061 ], [ -96.6196, 35.9416 ], [ -96.6208, 35.639 ], [ -96.6247, 35.4627 ], [ -96.6237, 35.4007 ], [ -96.5767, 35.4019 ], [ -96.5352, 35.3914 ], [ -96.5557, 35.4346 ], [ -96.5403, 35.4534 ], [ -96.5186, 35.4312 ], [ -96.4966, 35.4289 ], [ -96.4715, 35.463 ], [ -96.4413, 35.4677 ], [ -96.4414, 35.2901 ], [ -95.9815, 35.2898 ], [ -95.9815, 35.3768 ], [ -95.8754, 35.3767 ], [ -95.8753, 35.4636 ], [ -95.8224, 35.4637 ], [ -95.8224, 35.5517 ], [ -95.713, 35.5517 ], [ -95.3448, 35.5517 ], [ -95.3448, 35.293 ], [ -95.3118, 35.3027 ], [ -95.2876, 35.2948 ], [ -95.2622, 35.269 ], [ -95.2313, 35.2659 ], [ -95.1992, 35.3036 ], [ -95.1705, 35.3101 ], [ -95.1826, 35.3369 ], [ -95.1577, 35.3715 ], [ -95.1233, 35.3723 ], [ -95.0833, 35.4115 ], [ -95.0688, 35.4489 ], [ -95.0499, 35.4589 ], [ -95.0249, 35.4531 ], [ -95.0199, 35.425 ], [ -94.9868, 35.4084 ], [ -94.9489, 35.4073 ], [ -94.9257, 35.3928 ], [ -94.9018, 35.3979 ], [ -94.8947, 35.3731 ], [ -94.9119, 35.3466 ], [ -94.8659, 35.3566 ], [ -94.8421, 35.3711 ], [ -94.8136, 35.3233 ], [ -94.7944, 35.3271 ], [ -94.7784, 35.3509 ], [ -94.73, 35.3519 ], [ -94.6849, 35.3273 ], [ -94.6688, 35.295 ], [ -94.648, 35.2912 ], [ -94.6159, 35.3041 ], [ -94.5948, 35.328 ], [ -94.5691, 35.3256 ], [ -94.5546, 35.3102 ], [ -94.4946, 35.3011 ], [ -94.4948, 35.3298 ], [ -94.4805, 35.3523 ], [ -94.4836, 35.3694 ], [ -94.4356, 35.3861 ], [ -94.4307, 35.3925 ], [ -94.4497, 35.4967 ], [ -94.4727, 35.6386 ], [ -94.5229, 35.9361 ], [ -94.5628, 36.1619 ] ] ] } }
]
}
